{"type":"FeatureCollection","features":[{"type":"Feature","properties":{"district":1},"geometry":{"type":"MultiPolygon","coordinates":[[[[-97.56042,30.302994],[-97.56019,30.303377],[-97.558085,30.302387],[-97.557612,30.302166],[-97.55193,30.299494],[-97.550395,30.298764],[-97.550346,30.298743],[-97.550218,30.298689],[-97.549777,30.298482],[-97.548549,30.297895],[-97.54436,30.295859],[-97.544227,30.295794],[-97.544903,30.29476],[-97.5463,30.292625],[-97.54728,30.291126],[-97.547499,30.290791],[-97.548234,30.289692],[-97.548941,30.288633],[-97.548323,30.288324],[-97.545152,30.286762],[-97.544359,30.28637],[-97.543172,30.285784],[-97.542033,30.287401],[-97.541977,30.287373],[-97.541949,30.28736],[-97.538319,30.285502],[-97.538063,30.285371],[-97.537847,30.285266],[-97.53762,30.285155],[-97.537544,30.285113],[-97.537285,30.285517],[-97.537024,30.285897],[-97.536415,30.285594],[-97.535969,30.285371],[-97.534121,30.284478],[-97.530521,30.282739],[-97.527594,30.281325],[-97.52991,30.277432],[-97.530989,30.275611],[-97.527988,30.27417],[-97.52833,30.273652],[-97.528907,30.27274],[-97.53055,30.273552],[-97.530752,30.273652],[-97.531915,30.274193],[-97.53359,30.274973],[-97.534176,30.275245],[-97.534543,30.275415],[-97.53465,30.275466],[-97.53532,30.275777],[-97.536322,30.276243],[-97.541603,30.2787],[-97.54176,30.27845],[-97.542368,30.277506],[-97.542555,30.277216],[-97.542602,30.277143],[-97.544524,30.274028],[-97.545294,30.272779],[-97.546,30.271636],[-97.547066,30.269907],[-97.547162,30.269665],[-97.547373,30.269133],[-97.548002,30.268107],[-97.549707,30.265451],[-97.551797,30.262196],[-97.551858,30.262106],[-97.551991,30.262149],[-97.552089,30.262179],[-97.552189,30.262192],[-97.552336,30.262195],[-97.552448,30.262186],[-97.552606,30.262147],[-97.552675,30.262135],[-97.552726,30.262141],[-97.552753,30.262153],[-97.552769,30.26217],[-97.552818,30.262273],[-97.552851,30.262392],[-97.55286,30.262493],[-97.552883,30.262574],[-97.552912,30.262635],[-97.552965,30.262696],[-97.553172,30.262885],[-97.553198,30.262919],[-97.553235,30.263002],[-97.553256,30.263036],[-97.553306,30.263081],[-97.553373,30.263117],[-97.553429,30.263134],[-97.553541,30.263154],[-97.55356,30.263157],[-97.553608,30.2632],[-97.55365,30.263267],[-97.553638,30.263396],[-97.553651,30.263505],[-97.553698,30.263596],[-97.553678,30.263643],[-97.553378,30.263979],[-97.553324,30.264027],[-97.553216,30.264101],[-97.553128,30.26417],[-97.553077,30.264235],[-97.553041,30.264316],[-97.553017,30.264414],[-97.553003,30.264562],[-97.553027,30.264714],[-97.553019,30.264769],[-97.552995,30.264811],[-97.552963,30.264845],[-97.552935,30.264858],[-97.552855,30.264865],[-97.552808,30.264882],[-97.552712,30.26493],[-97.552661,30.264967],[-97.552612,30.265017],[-97.552599,30.265049],[-97.552598,30.26508],[-97.552673,30.265226],[-97.552683,30.26526],[-97.552678,30.265285],[-97.552644,30.265321],[-97.552571,30.265364],[-97.552547,30.265382],[-97.552468,30.265463],[-97.552437,30.265514],[-97.552402,30.265608],[-97.552384,30.26571],[-97.552397,30.265756],[-97.55243,30.265805],[-97.55248,30.265854],[-97.552616,30.265941],[-97.552704,30.265984],[-97.55297,30.26608],[-97.553219,30.266146],[-97.553293,30.266169],[-97.55345,30.266234],[-97.553593,30.266313],[-97.553681,30.266373],[-97.55382,30.266495],[-97.554021,30.266638],[-97.554125,30.266704],[-97.554377,30.266821],[-97.554484,30.266892],[-97.55454,30.266941],[-97.554563,30.266975],[-97.554582,30.267035],[-97.554608,30.267283],[-97.554636,30.267427],[-97.554746,30.267578],[-97.554919,30.267612],[-97.555008,30.267604],[-97.555051,30.267605],[-97.555087,30.267619],[-97.555157,30.267673],[-97.5552,30.267701],[-97.555259,30.267714],[-97.555478,30.267732],[-97.555558,30.267743],[-97.555669,30.267765],[-97.555705,30.267772],[-97.555796,30.267815],[-97.555847,30.267839],[-97.555879,30.267846],[-97.555866,30.267866],[-97.555863,30.267875],[-97.556017,30.267953],[-97.556125,30.268035],[-97.556135,30.268253],[-97.556234,30.268413],[-97.556158,30.268711],[-97.55623,30.268887],[-97.556346,30.268936],[-97.556704,30.268635],[-97.557314,30.268818],[-97.557407,30.269117],[-97.557468,30.26921],[-97.557502,30.269261],[-97.557536,30.269314],[-97.557838,30.269539],[-97.557721,30.269774],[-97.557741,30.269805],[-97.557779,30.269868],[-97.557783,30.269908],[-97.557787,30.269954],[-97.55779,30.269995],[-97.557791,30.270011],[-97.557867,30.270158],[-97.557928,30.27022],[-97.55799,30.270259],[-97.558047,30.270274],[-97.558125,30.270276],[-97.558146,30.270274],[-97.558204,30.270279],[-97.558202,30.270517],[-97.558186,30.270565],[-97.558261,30.270664],[-97.558272,30.270707],[-97.558271,30.270751],[-97.55827,30.270766],[-97.558259,30.270807],[-97.558263,30.270999],[-97.558301,30.271056],[-97.558395,30.271087],[-97.558496,30.271103],[-97.558691,30.271098],[-97.558702,30.271099],[-97.559055,30.271092],[-97.559262,30.271091],[-97.559319,30.271111],[-97.559349,30.271139],[-97.559347,30.271205],[-97.559329,30.271221],[-97.559317,30.27123],[-97.559307,30.271236],[-97.559288,30.271256],[-97.559243,30.27128],[-97.55913,30.271317],[-97.559103,30.271334],[-97.559074,30.271363],[-97.559023,30.271446],[-97.558993,30.271521],[-97.558988,30.271537],[-97.558972,30.271741],[-97.558941,30.271799],[-97.55888,30.271887],[-97.558809,30.271958],[-97.558743,30.272016],[-97.558716,30.272033],[-97.558693,30.272095],[-97.558697,30.272127],[-97.558697,30.272138],[-97.558699,30.272149],[-97.558701,30.27216],[-97.558703,30.272171],[-97.55871,30.27219],[-97.558716,30.272202],[-97.558722,30.272212],[-97.558728,30.272221],[-97.558735,30.27223],[-97.558743,30.272239],[-97.558752,30.272247],[-97.558761,30.272261],[-97.558823,30.272312],[-97.558825,30.272421],[-97.558822,30.272464],[-97.558826,30.272476],[-97.558854,30.272531],[-97.55892,30.272586],[-97.559002,30.27263],[-97.559179,30.272696],[-97.559382,30.272701],[-97.559457,30.272669],[-97.559506,30.272606],[-97.559638,30.272341],[-97.559676,30.272324],[-97.559806,30.272317],[-97.559956,30.272529],[-97.560055,30.272625],[-97.559999,30.272717],[-97.559432,30.273652],[-97.558747,30.274787],[-97.558772,30.274798],[-97.558837,30.274829],[-97.558859,30.274839],[-97.558919,30.274867],[-97.560012,30.275376],[-97.560046,30.275392],[-97.560193,30.27546],[-97.562785,30.27661],[-97.563293,30.276844],[-97.563701,30.27704],[-97.564376,30.277364],[-97.564621,30.277478],[-97.565071,30.277692],[-97.565879,30.278079],[-97.566706,30.278472],[-97.567688,30.278941],[-97.568034,30.279107],[-97.568439,30.279301],[-97.56863,30.279394],[-97.569588,30.279849],[-97.569184,30.280474],[-97.568283,30.281849],[-97.567686,30.282761],[-97.566973,30.283847],[-97.566822,30.284077],[-97.56648,30.284601],[-97.566014,30.28531],[-97.565977,30.28537],[-97.565633,30.285895],[-97.565065,30.286762],[-97.564562,30.287529],[-97.564386,30.287796],[-97.568417,30.289738],[-97.56711,30.291724],[-97.565894,30.293571],[-97.565787,30.293754],[-97.56554,30.294172],[-97.567129,30.297126],[-97.56758,30.297964],[-97.567669,30.298158],[-97.567192,30.298871],[-97.56649,30.299982],[-97.566159,30.300386],[-97.565843,30.300855],[-97.565566,30.301309],[-97.56545,30.301527],[-97.56542,30.301586],[-97.565381,30.301672],[-97.565274,30.301909],[-97.565151,30.302225],[-97.56502,30.302563],[-97.564931,30.302923],[-97.564682,30.304488],[-97.56454,30.304428],[-97.563345,30.303856],[-97.56067,30.302575],[-97.56042,30.302994]],[[-97.539302,30.282368],[-97.539607,30.282533],[-97.539765,30.282292],[-97.539457,30.282126],[-97.539302,30.282368]]],[[[-97.664072,30.405171],[-97.664035,30.405167],[-97.663866,30.405146],[-97.663249,30.404971],[-97.663113,30.404933],[-97.662678,30.404768],[-97.661355,30.404131],[-97.658422,30.402719],[-97.657529,30.402263],[-97.657345,30.402164],[-97.657052,30.401963],[-97.656698,30.401741],[-97.656433,30.40153],[-97.656008,30.401094],[-97.655601,30.400624],[-97.655374,30.400286],[-97.655075,30.399629],[-97.655021,30.399513],[-97.65487,30.399546],[-97.65479,30.399563],[-97.652632,30.400034],[-97.652455,30.399444],[-97.652171,30.398525],[-97.652144,30.398458],[-97.652033,30.398258],[-97.651912,30.398102],[-97.651747,30.397925],[-97.65163,30.397826],[-97.651489,30.397735],[-97.651111,30.397538],[-97.65003,30.396984],[-97.649163,30.396564],[-97.648335,30.396176],[-97.647498,30.395768],[-97.646832,30.39544],[-97.646573,30.395341],[-97.646394,30.395296],[-97.646218,30.395273],[-97.645665,30.395253],[-97.645515,30.395234],[-97.645359,30.395203],[-97.645245,30.395162],[-97.644839,30.394967],[-97.6444,30.394752],[-97.64431,30.39489],[-97.644295,30.394913],[-97.643182,30.396604],[-97.640896,30.400077],[-97.640813,30.40019],[-97.640742,30.400311],[-97.640351,30.400916],[-97.63873,30.403429],[-97.638599,30.403616],[-97.638573,30.403654],[-97.638512,30.403754],[-97.638325,30.403666],[-97.637865,30.404447],[-97.637733,30.404386],[-97.636563,30.403833],[-97.636534,30.403819],[-97.636415,30.40376],[-97.636218,30.403668],[-97.636204,30.403741],[-97.636177,30.403876],[-97.636157,30.403974],[-97.636017,30.403905],[-97.635645,30.403727],[-97.635131,30.403481],[-97.63439,30.403126],[-97.634312,30.403251],[-97.633579,30.404434],[-97.633307,30.404809],[-97.633127,30.405061],[-97.632583,30.405921],[-97.632333,30.406296],[-97.632228,30.406442],[-97.632131,30.406567],[-97.632051,30.40665],[-97.63194,30.40673],[-97.631822,30.40681],[-97.6317,30.406848],[-97.631603,30.406876],[-97.631492,30.40689],[-97.631349,30.406894],[-97.631238,30.406887],[-97.631124,30.406869],[-97.630971,30.406831],[-97.630739,30.40677],[-97.629784,30.4063],[-97.628839,30.405849],[-97.628445,30.405661],[-97.628405,30.405639],[-97.626434,30.404661],[-97.628873,30.400902],[-97.631092,30.397453],[-97.631135,30.397424],[-97.631236,30.397472],[-97.631453,30.397576],[-97.631813,30.397749],[-97.63208,30.397332],[-97.632519,30.396647],[-97.6326,30.396513],[-97.632731,30.396652],[-97.63292,30.396908],[-97.633091,30.39722],[-97.633217,30.397553],[-97.633291,30.397858],[-97.633336,30.398199],[-97.633374,30.398705],[-97.633546,30.398689],[-97.633725,30.398683],[-97.634125,30.398671],[-97.634485,30.398845],[-97.634759,30.398977],[-97.634741,30.399198],[-97.634729,30.399347],[-97.634651,30.399843],[-97.634922,30.400216],[-97.63592,30.4007],[-97.635491,30.401369],[-97.635068,30.402036],[-97.635386,30.402124],[-97.635906,30.402322],[-97.636272,30.402496],[-97.636476,30.402592],[-97.636496,30.402496],[-97.636618,30.401888],[-97.636742,30.401277],[-97.636974,30.400156],[-97.637271,30.400283],[-97.637296,30.400295],[-97.638592,30.400917],[-97.639669,30.401434],[-97.639738,30.401469],[-97.640167,30.400813],[-97.64055,30.400226],[-97.640631,30.400086],[-97.641114,30.399419],[-97.641698,30.398528],[-97.642988,30.39656],[-97.643268,30.396133],[-97.643909,30.395153],[-97.644066,30.394915],[-97.644131,30.394815],[-97.644188,30.394684],[-97.644211,30.394658],[-97.644288,30.394572],[-97.64558,30.392487],[-97.645628,30.392409],[-97.64634,30.391252],[-97.646873,30.390056],[-97.646676,30.389974],[-97.645437,30.389393],[-97.643301,30.388407],[-97.642538,30.388054],[-97.64203,30.387819],[-97.642689,30.386843],[-97.642914,30.38651],[-97.643147,30.38662],[-97.64371,30.386886],[-97.645897,30.38792],[-97.646208,30.387422],[-97.646837,30.386413],[-97.646925,30.386268],[-97.646639,30.386111],[-97.645725,30.385534],[-97.644226,30.384978],[-97.642673,30.384257],[-97.642639,30.384306],[-97.642612,30.38435],[-97.642469,30.384579],[-97.642256,30.38492],[-97.642006,30.385311],[-97.642044,30.385328],[-97.642081,30.385346],[-97.642329,30.385464],[-97.642586,30.385587],[-97.641661,30.387109],[-97.641597,30.387213],[-97.6414,30.387537],[-97.64047,30.387102],[-97.640376,30.387059],[-97.64013,30.386945],[-97.640055,30.386909],[-97.640166,30.386326],[-97.640293,30.38566],[-97.640353,30.385568],[-97.640425,30.385459],[-97.64091,30.384715],[-97.641527,30.383765],[-97.641551,30.383728],[-97.640853,30.38337],[-97.640565,30.383225],[-97.640318,30.383112],[-97.639646,30.382806],[-97.637657,30.38176],[-97.633487,30.379648],[-97.633342,30.37945],[-97.63323,30.379378],[-97.632391,30.380722],[-97.631362,30.382369],[-97.631225,30.382588],[-97.631047,30.382874],[-97.631021,30.382915],[-97.630995,30.382957],[-97.629804,30.384863],[-97.629093,30.385995],[-97.628201,30.387434],[-97.627797,30.388081],[-97.627778,30.388069],[-97.627332,30.387786],[-97.626763,30.387435],[-97.626732,30.387416],[-97.626588,30.387323],[-97.626283,30.387125],[-97.626139,30.387037],[-97.625906,30.386893],[-97.625745,30.386794],[-97.625621,30.386717],[-97.626028,30.386246],[-97.625997,30.386229],[-97.625295,30.385842],[-97.623028,30.389413],[-97.62294,30.389549],[-97.622976,30.389566],[-97.624386,30.390238],[-97.622002,30.393874],[-97.62265,30.39419],[-97.623636,30.394671],[-97.623561,30.394804],[-97.623532,30.394845],[-97.623459,30.394972],[-97.623398,30.395068],[-97.623303,30.395225],[-97.62321,30.395377],[-97.623048,30.395597],[-97.62294,30.395747],[-97.622925,30.395778],[-97.622879,30.395865],[-97.622794,30.395962],[-97.622587,30.396305],[-97.622457,30.396488],[-97.622034,30.39712],[-97.621822,30.397436],[-97.621708,30.397613],[-97.621354,30.398162],[-97.621331,30.398196],[-97.621318,30.398215],[-97.620893,30.398858],[-97.620571,30.398704],[-97.6194,30.398143],[-97.619061,30.397981],[-97.618978,30.398111],[-97.618518,30.398823],[-97.618836,30.400931],[-97.619386,30.401206],[-97.619361,30.401243],[-97.619323,30.401298],[-97.619281,30.401361],[-97.619163,30.401543],[-97.618965,30.401844],[-97.618644,30.402336],[-97.617104,30.40469],[-97.613139,30.402811],[-97.612402,30.398909],[-97.611533,30.397806],[-97.613258,30.395171],[-97.613369,30.395209],[-97.613728,30.394637],[-97.613735,30.394626],[-97.613876,30.394405],[-97.614145,30.393973],[-97.614043,30.393924],[-97.613076,30.393461],[-97.613062,30.393454],[-97.611934,30.392954],[-97.614457,30.389008],[-97.615474,30.387418],[-97.616085,30.386465],[-97.616168,30.386332],[-97.615554,30.386043],[-97.615138,30.385719],[-97.615222,30.385669],[-97.615491,30.385257],[-97.615855,30.384702],[-97.615563,30.384563],[-97.616707,30.382992],[-97.617876,30.381383],[-97.618487,30.380544],[-97.619605,30.379115],[-97.619628,30.379085],[-97.62034,30.379562],[-97.620497,30.379675],[-97.620516,30.379679],[-97.621275,30.380184],[-97.621455,30.380304],[-97.621726,30.380489],[-97.621909,30.380603],[-97.622052,30.380402],[-97.622129,30.380284],[-97.622597,30.379611],[-97.622961,30.379083],[-97.623207,30.378726],[-97.626062,30.374598],[-97.626113,30.37453],[-97.627689,30.375345],[-97.627854,30.375489],[-97.628512,30.374451],[-97.628652,30.37423],[-97.628664,30.374211],[-97.629393,30.373063],[-97.630607,30.371149],[-97.630663,30.371059],[-97.630687,30.371044],[-97.630713,30.37099],[-97.630717,30.370973],[-97.630746,30.370926],[-97.630933,30.371016],[-97.631053,30.371074],[-97.631134,30.371113],[-97.631199,30.370946],[-97.631204,30.370931],[-97.631262,30.370783],[-97.631568,30.369945],[-97.632192,30.368479],[-97.632394,30.368004],[-97.632649,30.367374],[-97.63328,30.365814],[-97.633454,30.365379],[-97.633505,30.365252],[-97.633837,30.364415],[-97.634289,30.363192],[-97.63438,30.362938],[-97.63451,30.362574],[-97.634529,30.362519],[-97.634566,30.362414],[-97.634632,30.36223],[-97.634716,30.361994],[-97.634848,30.361591],[-97.634905,30.361415],[-97.634942,30.361302],[-97.635016,30.361322],[-97.635151,30.361359],[-97.635191,30.361365],[-97.635237,30.36138],[-97.635307,30.361411],[-97.635453,30.361444],[-97.635618,30.36148],[-97.635637,30.361489],[-97.636037,30.361601],[-97.636757,30.361797],[-97.636989,30.361858],[-97.637136,30.3619],[-97.637197,30.361912],[-97.637228,30.361918],[-97.637267,30.361937],[-97.637313,30.361949],[-97.637581,30.361455],[-97.638901,30.35877],[-97.639015,30.358526],[-97.635406,30.357552],[-97.634184,30.357222],[-97.635912,30.355643],[-97.637671,30.356129],[-97.63834,30.355524],[-97.640268,30.356002],[-97.640287,30.355964],[-97.640424,30.355697],[-97.640667,30.355224],[-97.6412,30.354188],[-97.641572,30.353465],[-97.641807,30.353532],[-97.641879,30.353553],[-97.642127,30.353623],[-97.642142,30.353627],[-97.642205,30.353645],[-97.64247,30.35372],[-97.642574,30.35375],[-97.642743,30.353798],[-97.643279,30.353952],[-97.644188,30.354212],[-97.644224,30.354224],[-97.644297,30.354247],[-97.644475,30.354305],[-97.644703,30.354378],[-97.644805,30.354402],[-97.644819,30.354405],[-97.644837,30.354409],[-97.644999,30.354446],[-97.645185,30.354489],[-97.645208,30.354494],[-97.645231,30.354499],[-97.645333,30.354523],[-97.64547,30.354554],[-97.645557,30.354574],[-97.645716,30.354611],[-97.645908,30.354658],[-97.645967,30.354672],[-97.646532,30.35481],[-97.646671,30.355118],[-97.646723,30.355059],[-97.646761,30.355016],[-97.646815,30.355061],[-97.646843,30.355084],[-97.646884,30.355119],[-97.646954,30.355177],[-97.647046,30.355264],[-97.64715,30.355361],[-97.64716,30.355371],[-97.647209,30.355413],[-97.647226,30.355428],[-97.647313,30.355502],[-97.647456,30.355625],[-97.647897,30.356],[-97.647925,30.356025],[-97.64795,30.356046],[-97.647958,30.356053],[-97.648027,30.356112],[-97.648153,30.356216],[-97.648237,30.356244],[-97.647744,30.354058],[-97.647724,30.354016],[-97.647758,30.353959],[-97.647822,30.353855],[-97.647831,30.353839],[-97.647983,30.353592],[-97.647968,30.353585],[-97.647954,30.353579],[-97.647939,30.353572],[-97.647577,30.353405],[-97.647582,30.353396],[-97.647886,30.35293],[-97.647875,30.352925],[-97.64764,30.352814],[-97.64747,30.352734],[-97.647408,30.352705],[-97.647339,30.352672],[-97.647345,30.352663],[-97.647498,30.352415],[-97.647572,30.352296],[-97.647649,30.352333],[-97.649522,30.35324],[-97.650302,30.353612],[-97.650458,30.353679],[-97.650604,30.353728],[-97.650687,30.353748],[-97.650931,30.35389],[-97.651259,30.354072],[-97.651434,30.354169],[-97.652388,30.354699],[-97.652527,30.354776],[-97.652667,30.354853],[-97.652877,30.354927],[-97.652932,30.354947],[-97.653296,30.35515],[-97.653443,30.355232],[-97.653446,30.355149],[-97.653447,30.355131],[-97.653449,30.355073],[-97.653468,30.355055],[-97.653553,30.354979],[-97.65364,30.354924],[-97.653739,30.354862],[-97.653844,30.354549],[-97.653911,30.354349],[-97.653885,30.354296],[-97.653875,30.354263],[-97.653866,30.354186],[-97.653868,30.354145],[-97.653644,30.353779],[-97.653497,30.353541],[-97.653261,30.353136],[-97.653205,30.353045],[-97.653246,30.353027],[-97.653562,30.352899],[-97.653707,30.352821],[-97.653918,30.352665],[-97.654091,30.352487],[-97.654242,30.352287],[-97.654466,30.351901],[-97.654659,30.351529],[-97.654696,30.351449],[-97.654799,30.351253],[-97.654881,30.351291],[-97.655635,30.351657],[-97.655682,30.351679],[-97.65655,30.352104],[-97.656633,30.351974],[-97.656656,30.351938],[-97.656663,30.351928],[-97.656683,30.351896],[-97.657304,30.350939],[-97.657303,30.351023],[-97.657372,30.351118],[-97.65746,30.351166],[-97.659898,30.352348],[-97.660071,30.352527],[-97.660232,30.352444],[-97.660689,30.352664],[-97.660822,30.352697],[-97.660863,30.352659],[-97.660893,30.352671],[-97.660906,30.352676],[-97.660935,30.352688],[-97.660953,30.352641],[-97.660969,30.352598],[-97.661046,30.352391],[-97.661029,30.352378],[-97.660956,30.352326],[-97.660946,30.352311],[-97.660935,30.352296],[-97.661292,30.351761],[-97.663022,30.352569],[-97.664674,30.353291],[-97.664892,30.353387],[-97.666219,30.354041],[-97.666445,30.354145],[-97.667123,30.354471],[-97.667231,30.354523],[-97.667307,30.354559],[-97.667521,30.354662],[-97.66763,30.354714],[-97.668103,30.354944],[-97.668732,30.355249],[-97.66878,30.355186],[-97.669001,30.354841],[-97.669036,30.354788],[-97.669131,30.354644],[-97.669258,30.354453],[-97.669389,30.354256],[-97.669468,30.354134],[-97.66972,30.35374],[-97.669902,30.353828],[-97.669993,30.353871],[-97.67007,30.353901],[-97.670296,30.353544],[-97.670388,30.353399],[-97.670484,30.353254],[-97.670676,30.352963],[-97.671081,30.352418],[-97.669165,30.351551],[-97.66937,30.351238],[-97.669535,30.350985],[-97.669783,30.350611],[-97.670064,30.350169],[-97.670262,30.349986],[-97.670352,30.349937],[-97.67045,30.349896],[-97.670905,30.349707],[-97.671061,30.349629],[-97.671176,30.349535],[-97.671247,30.349458],[-97.671155,30.349412],[-97.669435,30.348617],[-97.669408,30.348605],[-97.668955,30.348396],[-97.668699,30.348277],[-97.668523,30.348196],[-97.668288,30.348093],[-97.668738,30.34738],[-97.668774,30.347396],[-97.668978,30.347491],[-97.6694,30.347682],[-97.670082,30.347994],[-97.670696,30.346848],[-97.671052,30.346502],[-97.671357,30.345926],[-97.671112,30.345569],[-97.671085,30.345529],[-97.670974,30.345367],[-97.670934,30.345296],[-97.670815,30.345341],[-97.670594,30.345368],[-97.670355,30.345341],[-97.67017,30.345287],[-97.670003,30.345214],[-97.668557,30.344498],[-97.664324,30.342508],[-97.663605,30.342163],[-97.66307,30.341913],[-97.661338,30.341046],[-97.661178,30.340965],[-97.661047,30.340904],[-97.655992,30.338545],[-97.653881,30.33756],[-97.653676,30.337464],[-97.655255,30.334998],[-97.655647,30.334386],[-97.655692,30.334324],[-97.655735,30.334245],[-97.655787,30.334094],[-97.655817,30.33395],[-97.65585,30.333573],[-97.655833,30.333376],[-97.655796,30.333163],[-97.656292,30.333329],[-97.656363,30.333354],[-97.656559,30.333042],[-97.656606,30.332968],[-97.656637,30.332984],[-97.656708,30.333019],[-97.65674,30.333034],[-97.65687,30.332844],[-97.656892,30.332795],[-97.656758,30.33273],[-97.656806,30.332652],[-97.656897,30.332509],[-97.656761,30.332463],[-97.656428,30.332348],[-97.656386,30.332333],[-97.655735,30.332108],[-97.655538,30.332033],[-97.655489,30.331945],[-97.654952,30.331175],[-97.654376,30.330262],[-97.654565,30.329722],[-97.654369,30.329726],[-97.653714,30.32976],[-97.653465,30.329773],[-97.652075,30.329869],[-97.651668,30.329898],[-97.65154,30.329908],[-97.650797,30.329959],[-97.649813,30.330027],[-97.649615,30.330041],[-97.649487,30.33005],[-97.649124,30.330075],[-97.648787,30.330099],[-97.648387,30.330126],[-97.64777,30.33017],[-97.647391,30.330196],[-97.646889,30.33023],[-97.646624,30.330248],[-97.64634,30.33027],[-97.64551,30.330327],[-97.645295,30.330342],[-97.64505,30.33036],[-97.64444,30.330403],[-97.64408,30.330429],[-97.643001,30.330506],[-97.634665,30.331104],[-97.633115,30.331212],[-97.632929,30.33123],[-97.631378,30.331336],[-97.630633,30.331383],[-97.630282,30.331406],[-97.630243,30.331409],[-97.629832,30.331435],[-97.62977,30.331439],[-97.629634,30.331448],[-97.62959,30.33145],[-97.629511,30.331455],[-97.628967,30.331486],[-97.62889,30.331604],[-97.628643,30.331984],[-97.628632,30.332002],[-97.628608,30.33204],[-97.628476,30.332243],[-97.628314,30.332493],[-97.627672,30.333485],[-97.627448,30.33383],[-97.626056,30.333191],[-97.625939,30.333137],[-97.625503,30.332937],[-97.62574,30.332576],[-97.626214,30.331854],[-97.626272,30.331765],[-97.626298,30.331724],[-97.626358,30.331632],[-97.625614,30.331673],[-97.625268,30.331694],[-97.624184,30.33177],[-97.623978,30.33208],[-97.623784,30.332372],[-97.623103,30.333444],[-97.622911,30.333746],[-97.622791,30.333935],[-97.622627,30.334193],[-97.622584,30.33426],[-97.62191,30.335309],[-97.621641,30.335726],[-97.621192,30.336423],[-97.617076,30.342818],[-97.616746,30.343332],[-97.616616,30.34355],[-97.617473,30.34395],[-97.620667,30.345443],[-97.623093,30.346577],[-97.623135,30.346597],[-97.623592,30.346809],[-97.622393,30.348648],[-97.620799,30.351092],[-97.619116,30.353673],[-97.620215,30.354191],[-97.622882,30.35545],[-97.621458,30.357686],[-97.621427,30.357736],[-97.621386,30.357799],[-97.621296,30.35794],[-97.621271,30.357981],[-97.621022,30.358365],[-97.619875,30.360143],[-97.618671,30.362045],[-97.618658,30.362039],[-97.618352,30.361902],[-97.618346,30.361912],[-97.61804,30.362405],[-97.618015,30.362445],[-97.617964,30.362526],[-97.618437,30.362981],[-97.618815,30.362717],[-97.618829,30.362707],[-97.621105,30.364917],[-97.621194,30.365011],[-97.621285,30.364997],[-97.624075,30.364523],[-97.624698,30.364255],[-97.626101,30.363485],[-97.627378,30.362893],[-97.62804,30.362854],[-97.628519,30.362914],[-97.62836,30.363104],[-97.628341,30.363123],[-97.627757,30.363698],[-97.627222,30.364198],[-97.627193,30.364225],[-97.627134,30.364288],[-97.627008,30.36442],[-97.626732,30.364714],[-97.626694,30.36475],[-97.626595,30.364845],[-97.626533,30.364905],[-97.626487,30.364948],[-97.626324,30.365105],[-97.626304,30.365124],[-97.626297,30.365131],[-97.626181,30.365278],[-97.626131,30.365341],[-97.625972,30.365543],[-97.625943,30.365575],[-97.62577,30.365764],[-97.625646,30.365898],[-97.625629,30.365917],[-97.625184,30.366425],[-97.625008,30.366627],[-97.624875,30.366778],[-97.624723,30.366963],[-97.62437,30.36739],[-97.624222,30.367595],[-97.624108,30.367728],[-97.624027,30.367822],[-97.62399,30.367865],[-97.62373,30.368181],[-97.623247,30.368766],[-97.623036,30.369032],[-97.622854,30.369261],[-97.622775,30.369361],[-97.621921,30.370482],[-97.621817,30.37062],[-97.621661,30.370825],[-97.621186,30.37144],[-97.61828,30.375199],[-97.617787,30.375837],[-97.616838,30.375391],[-97.616011,30.375005],[-97.615209,30.374631],[-97.614456,30.37429],[-97.614439,30.374309],[-97.614198,30.374673],[-97.614191,30.374683],[-97.614164,30.374724],[-97.614308,30.375421],[-97.614368,30.375566],[-97.614426,30.375703],[-97.613566,30.377027],[-97.610931,30.375809],[-97.609276,30.378384],[-97.609186,30.378531],[-97.609147,30.378592],[-97.608529,30.37955],[-97.607991,30.380392],[-97.607776,30.380729],[-97.607577,30.381042],[-97.607092,30.381771],[-97.607061,30.381828],[-97.606773,30.381678],[-97.606337,30.38145],[-97.606155,30.381331],[-97.605684,30.381022],[-97.605722,30.380961],[-97.605731,30.380945],[-97.605749,30.380914],[-97.605593,30.380839],[-97.605255,30.380683],[-97.605104,30.380614],[-97.604917,30.380528],[-97.604344,30.380263],[-97.602539,30.379369],[-97.60024,30.378263],[-97.600125,30.378207],[-97.599831,30.378066],[-97.598892,30.377614],[-97.597632,30.377007],[-97.59764,30.376988],[-97.597669,30.376925],[-97.597674,30.376914],[-97.597686,30.376888],[-97.597257,30.376676],[-97.597009,30.376557],[-97.596217,30.376175],[-97.59614,30.376138],[-97.596,30.376071],[-97.593562,30.374896],[-97.592654,30.374447],[-97.592514,30.374378],[-97.592487,30.374365],[-97.592349,30.374297],[-97.593189,30.373001],[-97.593273,30.372872],[-97.595198,30.369911],[-97.595675,30.369173],[-97.596219,30.368338],[-97.596491,30.367921],[-97.597785,30.365934],[-97.597837,30.365959],[-97.60011,30.367047],[-97.60223,30.368059],[-97.60272,30.368293],[-97.60314,30.368486],[-97.60375,30.367559],[-97.604706,30.366095],[-97.60489,30.365815],[-97.60499,30.36566],[-97.605122,30.365454],[-97.605209,30.365318],[-97.60578,30.364431],[-97.60688,30.364669],[-97.608002,30.364917],[-97.60805,30.364836],[-97.608876,30.363541],[-97.608983,30.363374],[-97.609247,30.36296],[-97.609265,30.362931],[-97.608724,30.362683],[-97.607316,30.362053],[-97.607346,30.362004],[-97.607361,30.36198],[-97.607633,30.361563],[-97.607707,30.36145],[-97.60841,30.360371],[-97.608442,30.360323],[-97.608458,30.360298],[-97.609276,30.35904],[-97.609799,30.358239],[-97.609768,30.358224],[-97.609117,30.357907],[-97.60846,30.357585],[-97.608279,30.357498],[-97.608108,30.357416],[-97.608031,30.357378],[-97.607934,30.357332],[-97.607519,30.357133],[-97.607467,30.357108],[-97.607439,30.357094],[-97.607398,30.357074],[-97.607333,30.357044],[-97.607279,30.35702],[-97.60727,30.357036],[-97.607023,30.357433],[-97.606259,30.358658],[-97.606225,30.358801],[-97.606205,30.358969],[-97.606199,30.359158],[-97.606201,30.359445],[-97.606148,30.359326],[-97.606058,30.359191],[-97.605891,30.358998],[-97.60537,30.358735],[-97.603092,30.357666],[-97.600379,30.356245],[-97.600184,30.356143],[-97.599207,30.355631],[-97.598727,30.355323],[-97.598305,30.355117],[-97.598029,30.354964],[-97.598043,30.354942],[-97.598067,30.354906],[-97.598627,30.354036],[-97.599512,30.352661],[-97.600164,30.351648],[-97.601285,30.349905],[-97.602266,30.348375],[-97.601488,30.347997],[-97.599991,30.347269],[-97.598854,30.346685],[-97.598622,30.346577],[-97.597773,30.346163],[-97.597036,30.347298],[-97.596806,30.347652],[-97.594249,30.35159],[-97.593571,30.352634],[-97.593557,30.352655],[-97.593547,30.35267],[-97.593536,30.352688],[-97.593497,30.352673],[-97.593474,30.352664],[-97.593442,30.352652],[-97.593433,30.352627],[-97.593422,30.352594],[-97.593403,30.352539],[-97.593397,30.352522],[-97.593702,30.35205],[-97.59371,30.352038],[-97.59376,30.351957],[-97.593801,30.35189],[-97.593816,30.351864],[-97.593871,30.35177],[-97.593919,30.351686],[-97.593925,30.351676],[-97.593978,30.351581],[-97.594029,30.351486],[-97.594079,30.35139],[-97.594127,30.351296],[-97.594176,30.351197],[-97.594195,30.351157],[-97.594222,30.3511],[-97.594267,30.351002],[-97.594311,30.350904],[-97.594354,30.350805],[-97.594395,30.350706],[-97.594435,30.350607],[-97.594474,30.350507],[-97.594511,30.350407],[-97.594547,30.350307],[-97.594582,30.350206],[-97.5946,30.350153],[-97.594616,30.350105],[-97.594648,30.350003],[-97.594662,30.349956],[-97.594679,30.349901],[-97.594708,30.349799],[-97.594725,30.349739],[-97.594736,30.349697],[-97.594763,30.349594],[-97.594789,30.349491],[-97.594813,30.349388],[-97.594836,30.349285],[-97.594846,30.349239],[-97.594858,30.349181],[-97.594878,30.349077],[-97.59489,30.349011],[-97.594897,30.348973],[-97.594914,30.348869],[-97.59493,30.348765],[-97.594945,30.348661],[-97.594958,30.348561],[-97.594969,30.348462],[-97.594979,30.348363],[-97.594981,30.348348],[-97.594989,30.348263],[-97.594996,30.348163],[-97.595003,30.348064],[-97.595008,30.347977],[-97.595008,30.347964],[-97.59501,30.347913],[-97.595012,30.347814],[-97.595012,30.347715],[-97.595012,30.347617],[-97.59501,30.347518],[-97.595006,30.347419],[-97.595002,30.34732],[-97.594996,30.347222],[-97.594989,30.347123],[-97.59498,30.347025],[-97.594976,30.346981],[-97.594971,30.346926],[-97.594965,30.346877],[-97.59496,30.346828],[-97.594948,30.34673],[-97.594934,30.346631],[-97.594919,30.346533],[-97.594903,30.346436],[-97.594895,30.346388],[-97.594886,30.346338],[-97.594868,30.346241],[-97.594848,30.346143],[-97.594832,30.346072],[-97.594827,30.346046],[-97.594805,30.345949],[-97.594968,30.345697],[-97.595395,30.345003],[-97.594595,30.344613],[-97.594383,30.344509],[-97.594146,30.344395],[-97.593833,30.344244],[-97.593379,30.34402],[-97.593268,30.343966],[-97.593118,30.343884],[-97.593079,30.343863],[-97.593023,30.343956],[-97.592769,30.344348],[-97.592631,30.344565],[-97.592451,30.344837],[-97.592206,30.34522],[-97.591998,30.345542],[-97.591937,30.345637],[-97.591203,30.346773],[-97.591063,30.34699],[-97.589331,30.34967],[-97.589274,30.349758],[-97.589202,30.349872],[-97.589045,30.350125],[-97.589026,30.350154],[-97.588797,30.35052],[-97.588788,30.350534],[-97.588681,30.350705],[-97.588542,30.350926],[-97.588487,30.351015],[-97.588455,30.351066],[-97.588044,30.350883],[-97.587854,30.350797],[-97.587605,30.350686],[-97.586848,30.350347],[-97.586586,30.35021],[-97.586552,30.350192],[-97.586346,30.350061],[-97.586261,30.350007],[-97.58426,30.348379],[-97.583616,30.347855],[-97.583597,30.34784],[-97.583575,30.347822],[-97.582731,30.347134],[-97.582121,30.346638],[-97.581632,30.346239],[-97.581435,30.346078],[-97.581427,30.346071],[-97.581396,30.346039],[-97.58134,30.345984],[-97.581328,30.345972],[-97.581251,30.345879],[-97.581211,30.345831],[-97.581184,30.345799],[-97.581129,30.345732],[-97.58103,30.345612],[-97.580741,30.345261],[-97.580443,30.344898],[-97.580314,30.344742],[-97.580176,30.344574],[-97.580046,30.344417],[-97.579968,30.344322],[-97.579823,30.344146],[-97.579753,30.34406],[-97.579867,30.344025],[-97.580043,30.34397],[-97.580086,30.343957],[-97.579638,30.342843],[-97.579489,30.342554],[-97.57905,30.341673],[-97.578469,30.34184],[-97.57817,30.341927],[-97.577855,30.341991],[-97.577491,30.342037],[-97.576826,30.342087],[-97.576564,30.342108],[-97.576567,30.341982],[-97.576563,30.341957],[-97.576554,30.3419],[-97.576532,30.341729],[-97.576494,30.341546],[-97.575925,30.341668],[-97.575533,30.341695],[-97.57524,30.341714],[-97.575272,30.341663],[-97.576846,30.339114],[-97.571478,30.336552],[-97.570633,30.336149],[-97.569255,30.335483],[-97.568918,30.335137],[-97.568733,30.334697],[-97.568361,30.334191],[-97.568108,30.333864],[-97.567836,30.333524],[-97.567616,30.333249],[-97.567516,30.333138],[-97.567356,30.33296],[-97.566896,30.332585],[-97.566647,30.3324],[-97.565972,30.331971],[-97.565747,30.331842],[-97.565586,30.33175],[-97.565006,30.331449],[-97.564336,30.331135],[-97.563594,30.330858],[-97.563148,30.330724],[-97.561954,30.330482],[-97.561456,30.330404],[-97.561277,30.330372],[-97.561153,30.330351],[-97.560748,30.330279],[-97.560379,30.330206],[-97.560511,30.32968],[-97.560558,30.329076],[-97.560637,30.32841],[-97.560762,30.327367],[-97.560787,30.327154],[-97.560893,30.32627],[-97.56127,30.323104],[-97.561482,30.322453],[-97.561497,30.32242],[-97.5615,30.322399],[-97.561959,30.321083],[-97.562068,30.320772],[-97.562324,30.319586],[-97.562848,30.317264],[-97.563033,30.316389],[-97.563114,30.315987],[-97.563175,30.315543],[-97.563308,30.31473],[-97.563374,30.314408],[-97.563514,30.314485],[-97.564199,30.314844],[-97.565726,30.315644],[-97.566078,30.315147],[-97.566684,30.314289],[-97.567421,30.313196],[-97.568067,30.312234],[-97.569239,30.310491],[-97.569742,30.309666],[-97.569972,30.309288],[-97.570078,30.309114],[-97.570185,30.308938],[-97.570355,30.308658],[-97.570408,30.30857],[-97.571328,30.307058],[-97.571508,30.307786],[-97.572005,30.307021],[-97.572925,30.305598],[-97.575724,30.301271],[-97.575786,30.301184],[-97.57311,30.299889],[-97.572974,30.299823],[-97.572479,30.299584],[-97.572463,30.299576],[-97.572376,30.299534],[-97.572327,30.29951],[-97.572339,30.299489],[-97.572349,30.299471],[-97.572395,30.299388],[-97.572526,30.299153],[-97.573889,30.296921],[-97.573904,30.296897],[-97.573931,30.296854],[-97.573948,30.296825],[-97.574019,30.296708],[-97.574104,30.296562],[-97.574291,30.296243],[-97.579038,30.288461],[-97.583526,30.28856],[-97.583589,30.288561],[-97.584395,30.28858],[-97.585006,30.288588],[-97.586331,30.288614],[-97.587535,30.288632],[-97.587898,30.288628],[-97.588287,30.288592],[-97.588599,30.288552],[-97.588879,30.28849],[-97.588997,30.288472],[-97.590471,30.287833],[-97.591253,30.287224],[-97.592559,30.286323],[-97.592888,30.286071],[-97.593173,30.285839],[-97.593384,30.285649],[-97.593628,30.285417],[-97.593877,30.285165],[-97.594111,30.284908],[-97.594325,30.284638],[-97.594824,30.283882],[-97.595842,30.282262],[-97.595959,30.282097],[-97.595827,30.282016],[-97.594139,30.280976],[-97.591946,30.279116],[-97.591289,30.278566],[-97.591038,30.278353],[-97.590966,30.278293],[-97.590839,30.278125],[-97.591119,30.277689],[-97.591257,30.277474],[-97.591486,30.27711],[-97.591887,30.27746],[-97.592503,30.277997],[-97.594773,30.279979],[-97.595156,30.279376],[-97.595371,30.279038],[-97.594632,30.278666],[-97.59359,30.278145],[-97.592666,30.277682],[-97.592488,30.277592],[-97.592985,30.276816],[-97.591963,30.276351],[-97.594082,30.272969],[-97.59415,30.272871],[-97.594224,30.272769],[-97.595932,30.270062],[-97.597086,30.268213],[-97.597733,30.267203],[-97.598145,30.266576],[-97.598377,30.266213],[-97.59861,30.26585],[-97.598821,30.26552],[-97.598843,30.265486],[-97.604692,30.26835],[-97.602313,30.272136],[-97.601939,30.272768],[-97.601133,30.274128],[-97.600184,30.275523],[-97.599964,30.275882],[-97.601287,30.276265],[-97.601327,30.276192],[-97.601333,30.276171],[-97.601709,30.275572],[-97.602588,30.276014],[-97.602651,30.276046],[-97.60274,30.276091],[-97.602896,30.276169],[-97.604092,30.274245],[-97.60425,30.274004],[-97.604327,30.273886],[-97.604388,30.273915],[-97.604421,30.27393],[-97.604444,30.273941],[-97.604709,30.274071],[-97.604731,30.274082],[-97.605506,30.274462],[-97.605465,30.27453],[-97.604983,30.275337],[-97.604451,30.276228],[-97.604264,30.276546],[-97.603861,30.277243],[-97.606194,30.278388],[-97.609458,30.279969],[-97.610054,30.280258],[-97.609161,30.281631],[-97.612799,30.282566],[-97.613862,30.282836],[-97.614593,30.283301],[-97.614989,30.283521],[-97.615585,30.283802],[-97.61837,30.285113],[-97.62137,30.28657],[-97.622161,30.286954],[-97.622266,30.287005],[-97.622192,30.287125],[-97.621727,30.287853],[-97.621315,30.2885],[-97.620975,30.289036],[-97.620545,30.289705],[-97.620165,30.290299],[-97.619729,30.290983],[-97.621224,30.291711],[-97.623155,30.292629],[-97.623308,30.2927],[-97.623394,30.292741],[-97.623473,30.292635],[-97.624225,30.291543],[-97.624363,30.291342],[-97.624416,30.291262],[-97.62455,30.291061],[-97.624699,30.290836],[-97.624845,30.290616],[-97.625298,30.289932],[-97.625543,30.289415],[-97.626109,30.288539],[-97.628754,30.289719],[-97.628902,30.289793],[-97.628971,30.289661],[-97.629212,30.289298],[-97.632362,30.290805],[-97.632444,30.290845],[-97.632619,30.290613],[-97.632669,30.290547],[-97.632754,30.290434],[-97.633397,30.290756],[-97.634434,30.291275],[-97.637143,30.28794],[-97.638059,30.286812],[-97.638536,30.286223],[-97.639017,30.285631],[-97.639495,30.285043],[-97.639982,30.284442],[-97.640207,30.284165],[-97.640146,30.284136],[-97.640038,30.284088],[-97.640006,30.284068],[-97.639929,30.284039],[-97.639831,30.283992],[-97.639722,30.283941],[-97.639655,30.283909],[-97.639624,30.283895],[-97.639594,30.28388],[-97.639513,30.283843],[-97.639468,30.283821],[-97.639442,30.283809],[-97.639409,30.283794],[-97.639344,30.283765],[-97.639313,30.283751],[-97.639266,30.283729],[-97.639219,30.283706],[-97.639198,30.283696],[-97.63916,30.283678],[-97.639119,30.28366],[-97.639089,30.283647],[-97.638984,30.283598],[-97.638879,30.283549],[-97.638827,30.283524],[-97.638815,30.283519],[-97.638769,30.283497],[-97.638662,30.283448],[-97.638585,30.283412],[-97.638558,30.283399],[-97.638451,30.283349],[-97.638165,30.283216],[-97.638106,30.283189],[-97.635778,30.28204],[-97.634527,30.281463],[-97.634326,30.281377],[-97.634344,30.281349],[-97.634885,30.280515],[-97.635732,30.27921],[-97.635959,30.27886],[-97.635797,30.278745],[-97.635594,30.27865],[-97.633613,30.277719],[-97.633159,30.277507],[-97.633065,30.277463],[-97.632969,30.277613],[-97.632863,30.27778],[-97.632753,30.277954],[-97.632672,30.278073],[-97.632534,30.2783],[-97.632445,30.27844],[-97.632242,30.278761],[-97.631908,30.279301],[-97.631769,30.279523],[-97.631302,30.280256],[-97.631108,30.280566],[-97.63106,30.280642],[-97.63098,30.28077],[-97.630953,30.28079],[-97.630901,30.280884],[-97.630849,30.28096],[-97.630842,30.28097],[-97.63082,30.281037],[-97.63077,30.281117],[-97.630672,30.281275],[-97.630477,30.281588],[-97.630412,30.281696],[-97.630239,30.281977],[-97.630169,30.282095],[-97.629708,30.28284],[-97.629556,30.283085],[-97.629145,30.283746],[-97.628953,30.284048],[-97.628654,30.284521],[-97.628402,30.284919],[-97.628131,30.284792],[-97.627606,30.284545],[-97.626765,30.284151],[-97.62586,30.283727],[-97.625909,30.283639],[-97.627278,30.281461],[-97.627615,30.280923],[-97.626515,30.280398],[-97.626399,30.280343],[-97.625931,30.280126],[-97.625066,30.279725],[-97.625028,30.279785],[-97.622529,30.27861],[-97.622481,30.278589],[-97.622491,30.278572],[-97.622508,30.278544],[-97.622529,30.278509],[-97.622565,30.278453],[-97.622614,30.278376],[-97.622668,30.278291],[-97.622696,30.278247],[-97.622726,30.2782],[-97.62275,30.278162],[-97.62278,30.278113],[-97.622843,30.278015],[-97.622955,30.277836],[-97.622979,30.277798],[-97.62302,30.277734],[-97.623057,30.277677],[-97.62312,30.277578],[-97.62322,30.277417],[-97.623461,30.27704],[-97.623497,30.276987],[-97.623642,30.276756],[-97.623769,30.276555],[-97.623783,30.276533],[-97.623924,30.276309],[-97.623964,30.276241],[-97.624007,30.276267],[-97.624236,30.276376],[-97.624894,30.276688],[-97.626632,30.277515],[-97.626995,30.277685],[-97.627795,30.278069],[-97.627818,30.278028],[-97.627834,30.278004],[-97.627842,30.277991],[-97.627855,30.277971],[-97.627995,30.277786],[-97.628871,30.276375],[-97.629119,30.275971],[-97.630026,30.27455],[-97.630632,30.273572],[-97.630897,30.273143],[-97.63108,30.272851],[-97.631809,30.271705],[-97.631934,30.271504],[-97.631951,30.271477],[-97.632002,30.271401],[-97.631624,30.27127],[-97.631264,30.271145],[-97.631134,30.271099],[-97.630552,30.270897],[-97.629833,30.270646],[-97.628895,30.270178],[-97.628782,30.270121],[-97.62832,30.269891],[-97.627357,30.269215],[-97.626664,30.268728],[-97.6269,30.268359],[-97.62746,30.267515],[-97.628442,30.265973],[-97.628492,30.265895],[-97.628544,30.265813],[-97.628642,30.265659],[-97.628724,30.265531],[-97.628854,30.265325],[-97.628904,30.265247],[-97.62899,30.265111],[-97.629043,30.265026],[-97.629127,30.264894],[-97.629263,30.264676],[-97.629312,30.2646],[-97.629333,30.264566],[-97.629401,30.264459],[-97.629465,30.264357],[-97.629505,30.264294],[-97.629772,30.263866],[-97.629847,30.26375],[-97.63009,30.263369],[-97.63014,30.263288],[-97.630148,30.26327],[-97.630486,30.262743],[-97.630568,30.262614],[-97.630626,30.262457],[-97.630626,30.262354],[-97.630777,30.261939],[-97.630863,30.26182],[-97.630919,30.261744],[-97.631076,30.261505],[-97.63122,30.261285],[-97.631243,30.261253],[-97.631434,30.260982],[-97.631476,30.260922],[-97.631519,30.260864],[-97.631538,30.260836],[-97.631601,30.260746],[-97.631624,30.260712],[-97.631694,30.260611],[-97.631741,30.260545],[-97.631785,30.260479],[-97.631825,30.260426],[-97.631863,30.260372],[-97.632025,30.260144],[-97.632084,30.26006],[-97.632194,30.259903],[-97.632228,30.259855],[-97.632256,30.259816],[-97.632352,30.259679],[-97.632529,30.259429],[-97.632695,30.259193],[-97.632857,30.258963],[-97.633025,30.258724],[-97.633076,30.258653],[-97.63319,30.258488],[-97.633218,30.258448],[-97.633338,30.258276],[-97.633355,30.258252],[-97.633369,30.25823],[-97.633498,30.258046],[-97.633516,30.25802],[-97.633556,30.257962],[-97.633662,30.257811],[-97.633712,30.257739],[-97.633755,30.257677],[-97.63381,30.257599],[-97.634041,30.257266],[-97.63406,30.257238],[-97.634124,30.257147],[-97.634416,30.256679],[-97.635253,30.256966],[-97.638949,30.257953],[-97.639447,30.25823],[-97.63972,30.25858],[-97.639852,30.258968],[-97.640021,30.259957],[-97.640801,30.262411],[-97.641419,30.263388],[-97.641582,30.26337],[-97.641706,30.263345],[-97.641833,30.263304],[-97.641929,30.263263],[-97.642016,30.263216],[-97.642119,30.263143],[-97.642305,30.262988],[-97.64234,30.262949],[-97.642417,30.262885],[-97.642535,30.2629],[-97.642562,30.262904],[-97.642689,30.262935],[-97.642909,30.262971],[-97.642987,30.262975],[-97.643007,30.262968],[-97.643115,30.262957],[-97.643181,30.262966],[-97.643204,30.262977],[-97.643245,30.263008],[-97.643268,30.263045],[-97.64329,30.263064],[-97.643339,30.263093],[-97.643448,30.263124],[-97.643468,30.263139],[-97.643541,30.263173],[-97.643679,30.26323],[-97.644041,30.263315],[-97.644362,30.263381],[-97.644533,30.263417],[-97.644598,30.263419],[-97.644654,30.263428],[-97.644777,30.263447],[-97.644928,30.263465],[-97.644983,30.263465],[-97.645015,30.263466],[-97.645045,30.263473],[-97.645145,30.263483],[-97.645365,30.2635],[-97.645567,30.263528],[-97.645663,30.263548],[-97.645695,30.263554],[-97.645769,30.26357],[-97.646033,30.26359],[-97.646108,30.263581],[-97.646317,30.263561],[-97.646458,30.263538],[-97.64668,30.263525],[-97.646712,30.263505],[-97.646866,30.263463],[-97.647108,30.263397],[-97.647374,30.263342],[-97.647429,30.26334],[-97.647489,30.263352],[-97.647572,30.263393],[-97.647605,30.263388],[-97.647614,30.26337],[-97.647638,30.263329],[-97.647699,30.263287],[-97.647754,30.263274],[-97.647786,30.263262],[-97.647796,30.263244],[-97.647784,30.263221],[-97.647787,30.263183],[-97.647805,30.263163],[-97.647851,30.263142],[-97.647906,30.263135],[-97.647965,30.26314],[-97.647996,30.263168],[-97.648023,30.263173],[-97.648087,30.263155],[-97.648117,30.263144],[-97.648157,30.263149],[-97.648185,30.263156],[-97.648212,30.263155],[-97.648318,30.26312],[-97.648384,30.263127],[-97.648433,30.26313],[-97.648486,30.263098],[-97.648564,30.263086],[-97.648627,30.263086],[-97.648686,30.2631],[-97.648712,30.263106],[-97.648781,30.263105],[-97.648804,30.263101],[-97.649083,30.263049],[-97.649338,30.263002],[-97.649404,30.263025],[-97.649431,30.263055],[-97.649474,30.263067],[-97.649543,30.263058],[-97.649591,30.263073],[-97.649629,30.263068],[-97.649668,30.263059],[-97.649709,30.263024],[-97.649777,30.263001],[-97.649821,30.262996],[-97.64985,30.263001],[-97.649888,30.263009],[-97.649928,30.263008],[-97.650067,30.262977],[-97.650073,30.262954],[-97.650076,30.262931],[-97.650082,30.262909],[-97.650107,30.262889],[-97.650156,30.262873],[-97.650258,30.262879],[-97.650383,30.2629],[-97.650417,30.262911],[-97.650461,30.262904],[-97.650558,30.262888],[-97.650674,30.262862],[-97.650864,30.262858],[-97.650988,30.262866],[-97.651155,30.262853],[-97.651338,30.262854],[-97.651429,30.262859],[-97.651439,30.262865],[-97.651449,30.262871],[-97.651459,30.262875],[-97.651471,30.262878],[-97.651487,30.262882],[-97.651498,30.262885],[-97.651508,30.262888],[-97.65152,30.262891],[-97.651532,30.262895],[-97.651551,30.262899],[-97.651569,30.262902],[-97.651585,30.262905],[-97.651598,30.262907],[-97.651621,30.262908],[-97.651633,30.262909],[-97.651644,30.262909],[-97.651665,30.262908],[-97.651677,30.262907],[-97.651689,30.262905],[-97.651704,30.262902],[-97.651721,30.262899],[-97.651741,30.262896],[-97.651765,30.262892],[-97.651787,30.262889],[-97.651807,30.262886],[-97.651825,30.262883],[-97.651837,30.262881],[-97.651852,30.262878],[-97.651867,30.262876],[-97.651882,30.262872],[-97.651895,30.26287],[-97.651918,30.262864],[-97.651934,30.262861],[-97.651948,30.262858],[-97.651963,30.262857],[-97.651974,30.262857],[-97.651985,30.262856],[-97.651998,30.262856],[-97.652032,30.262856],[-97.652065,30.262855],[-97.652084,30.262855],[-97.652101,30.262855],[-97.652126,30.262855],[-97.652144,30.262856],[-97.652157,30.262856],[-97.65217,30.262856],[-97.652181,30.262856],[-97.652193,30.262857],[-97.652205,30.262858],[-97.652224,30.26286],[-97.652238,30.262862],[-97.65225,30.262864],[-97.652263,30.262866],[-97.652281,30.262867],[-97.652298,30.262869],[-97.652311,30.26287],[-97.652329,30.262871],[-97.652341,30.262872],[-97.652354,30.262871],[-97.652366,30.262871],[-97.652381,30.26287],[-97.652392,30.262869],[-97.652403,30.262867],[-97.652428,30.262861],[-97.652445,30.262856],[-97.652459,30.262852],[-97.652475,30.262846],[-97.652487,30.262842],[-97.652512,30.262835],[-97.652531,30.262833],[-97.652549,30.262832],[-97.652567,30.262832],[-97.652596,30.262833],[-97.652611,30.262833],[-97.652634,30.262833],[-97.65265,30.262833],[-97.652662,30.262833],[-97.652676,30.262831],[-97.652692,30.262821],[-97.652696,30.262811],[-97.652699,30.262802],[-97.652699,30.262792],[-97.652697,30.262756],[-97.652696,30.262745],[-97.652694,30.262734],[-97.652695,30.26272],[-97.652695,30.262705],[-97.652696,30.262696],[-97.652698,30.262686],[-97.652704,30.262676],[-97.652717,30.26267],[-97.65273,30.262666],[-97.65274,30.262663],[-97.652755,30.262661],[-97.652775,30.262659],[-97.65279,30.262657],[-97.652806,30.262656],[-97.652824,30.262654],[-97.652837,30.262654],[-97.652861,30.262654],[-97.652878,30.262653],[-97.652898,30.262649],[-97.652918,30.262647],[-97.652932,30.262645],[-97.652949,30.262643],[-97.652972,30.26264],[-97.652989,30.262637],[-97.653,30.262636],[-97.653026,30.262631],[-97.653049,30.262628],[-97.653068,30.262624],[-97.653089,30.262619],[-97.653111,30.262612],[-97.653123,30.262609],[-97.653143,30.262604],[-97.653164,30.262602],[-97.653185,30.262604],[-97.653204,30.262609],[-97.653225,30.262613],[-97.653242,30.262614],[-97.653259,30.262613],[-97.653285,30.262611],[-97.653299,30.262611],[-97.653323,30.262609],[-97.653346,30.262606],[-97.65336,30.262604],[-97.653371,30.262603],[-97.653389,30.262602],[-97.6534,30.262601],[-97.65342,30.262599],[-97.653435,30.262602],[-97.653454,30.262605],[-97.653474,30.26261],[-97.653486,30.262612],[-97.653497,30.262614],[-97.653512,30.262616],[-97.653524,30.262617],[-97.65355,30.262618],[-97.653561,30.262618],[-97.653579,30.262618],[-97.6536,30.262618],[-97.653616,30.262618],[-97.653627,30.262617],[-97.653645,30.262617],[-97.653656,30.262616],[-97.653674,30.262615],[-97.653685,30.262615],[-97.653711,30.262615],[-97.653727,30.262614],[-97.653747,30.262614],[-97.653769,30.262613],[-97.653791,30.262612],[-97.653806,30.262612],[-97.653817,30.262612],[-97.653833,30.262612],[-97.653845,30.262612],[-97.653873,30.262613],[-97.653888,30.262613],[-97.653901,30.262614],[-97.653915,30.262618],[-97.653931,30.262623],[-97.65395,30.262626],[-97.65397,30.262625],[-97.653989,30.262621],[-97.654013,30.262615],[-97.654031,30.262612],[-97.654046,30.262611],[-97.654062,30.262611],[-97.654076,30.262611],[-97.654088,30.262612],[-97.654105,30.262614],[-97.654124,30.262615],[-97.654143,30.262615],[-97.654165,30.262616],[-97.654186,30.262616],[-97.6542,30.262617],[-97.654216,30.262617],[-97.654237,30.262618],[-97.654253,30.262619],[-97.654268,30.26262],[-97.654279,30.262621],[-97.654296,30.262622],[-97.654308,30.262623],[-97.654325,30.262623],[-97.654336,30.262625],[-97.654361,30.262628],[-97.654377,30.262633],[-97.654386,30.262639],[-97.654388,30.262653],[-97.654376,30.262659],[-97.65436,30.262664],[-97.65435,30.262668],[-97.654353,30.26268],[-97.654372,30.262684],[-97.654394,30.262687],[-97.654416,30.262687],[-97.654436,30.262683],[-97.654452,30.262679],[-97.654462,30.262676],[-97.654487,30.262669],[-97.65451,30.262661],[-97.654532,30.262655],[-97.654559,30.262657],[-97.654574,30.262666],[-97.654584,30.262677],[-97.654591,30.262687],[-97.654603,30.262702],[-97.654616,30.262715],[-97.654625,30.262722],[-97.654635,30.262727],[-97.654646,30.26273],[-97.654663,30.26273],[-97.654688,30.262727],[-97.65471,30.262725],[-97.654735,30.262722],[-97.654766,30.262716],[-97.654782,30.262714],[-97.654806,30.262715],[-97.654829,30.262714],[-97.654848,30.262714],[-97.65487,30.262716],[-97.654887,30.262717],[-97.654904,30.262719],[-97.654918,30.26272],[-97.654943,30.262721],[-97.654956,30.26272],[-97.654968,30.262721],[-97.654984,30.262721],[-97.655008,30.262722],[-97.655031,30.262724],[-97.655055,30.262726],[-97.655067,30.262725],[-97.655084,30.262722],[-97.65511,30.262717],[-97.655124,30.262717],[-97.655151,30.262719],[-97.655171,30.262723],[-97.655189,30.262726],[-97.655212,30.262728],[-97.655226,30.262731],[-97.655253,30.262733],[-97.65528,30.262733],[-97.655294,30.262732],[-97.655317,30.262734],[-97.65533,30.262743],[-97.655343,30.262759],[-97.655354,30.262766],[-97.65537,30.262769],[-97.655388,30.262771],[-97.655428,30.262773],[-97.655465,30.262777],[-97.655483,30.262778],[-97.6555,30.262779],[-97.655514,30.262779],[-97.655529,30.262778],[-97.65554,30.262777],[-97.655554,30.262775],[-97.655567,30.262771],[-97.655587,30.262765],[-97.655598,30.262761],[-97.655606,30.262753],[-97.655613,30.262743],[-97.655622,30.262729],[-97.655631,30.262717],[-97.655644,30.262709],[-97.655662,30.262702],[-97.655689,30.262696],[-97.655714,30.262695],[-97.655726,30.262697],[-97.655737,30.262703],[-97.655745,30.26271],[-97.655756,30.262722],[-97.655764,30.262731],[-97.655774,30.262743],[-97.655784,30.262754],[-97.655797,30.262766],[-97.655809,30.262772],[-97.655819,30.262775],[-97.655835,30.262775],[-97.65585,30.262775],[-97.655864,30.262776],[-97.655879,30.262779],[-97.655894,30.26278],[-97.655905,30.26278],[-97.655916,30.26278],[-97.655943,30.262779],[-97.655963,30.262778],[-97.655985,30.262775],[-97.656002,30.262772],[-97.656013,30.262771],[-97.656025,30.262769],[-97.656042,30.262768],[-97.656064,30.262768],[-97.65608,30.262768],[-97.656096,30.262768],[-97.656118,30.262767],[-97.65613,30.262767],[-97.656141,30.262766],[-97.656162,30.262764],[-97.656175,30.262762],[-97.656186,30.262759],[-97.6562,30.262759],[-97.656223,30.262759],[-97.656246,30.262759],[-97.656264,30.262758],[-97.656279,30.26276],[-97.656299,30.262762],[-97.656312,30.262764],[-97.656332,30.262767],[-97.656346,30.26277],[-97.656357,30.262772],[-97.656373,30.262774],[-97.656385,30.262774],[-97.656405,30.262775],[-97.656418,30.262776],[-97.656437,30.262776],[-97.656449,30.262776],[-97.656469,30.262777],[-97.656481,30.262778],[-97.656499,30.262778],[-97.65651,30.262779],[-97.656527,30.262779],[-97.656548,30.26278],[-97.656561,30.262781],[-97.656589,30.262782],[-97.656616,30.262781],[-97.656635,30.262779],[-97.656652,30.262778],[-97.656664,30.262777],[-97.656689,30.262772],[-97.656712,30.262768],[-97.65673,30.262765],[-97.65675,30.262765],[-97.656768,30.262766],[-97.656785,30.262767],[-97.656798,30.262768],[-97.656817,30.26277],[-97.656834,30.262771],[-97.656846,30.262772],[-97.656869,30.262774],[-97.656883,30.262774],[-97.656905,30.262775],[-97.656917,30.262775],[-97.656937,30.262776],[-97.65695,30.262777],[-97.656969,30.262777],[-97.656982,30.262777],[-97.657003,30.262778],[-97.657018,30.262778],[-97.657033,30.262778],[-97.657057,30.262777],[-97.657073,30.262778],[-97.657096,30.262778],[-97.657112,30.262779],[-97.657134,30.262779],[-97.657149,30.26278],[-97.65717,30.26278],[-97.657183,30.26278],[-97.657203,30.262779],[-97.657214,30.262778],[-97.657241,30.262776],[-97.657257,30.262775],[-97.657269,30.262774],[-97.657292,30.262772],[-97.657314,30.262767],[-97.657325,30.262762],[-97.657334,30.262752],[-97.657339,30.262734],[-97.657345,30.262724],[-97.657358,30.262715],[-97.657372,30.26271],[-97.657387,30.262705],[-97.657399,30.262702],[-97.657414,30.262699],[-97.657427,30.262698],[-97.657439,30.262698],[-97.657452,30.262698],[-97.657465,30.262699],[-97.657476,30.2627],[-97.657489,30.262702],[-97.657502,30.262705],[-97.657513,30.26271],[-97.657523,30.262716],[-97.657534,30.262724],[-97.657545,30.262733],[-97.657555,30.26274],[-97.65757,30.262746],[-97.657584,30.262751],[-97.657599,30.262754],[-97.657615,30.262756],[-97.657626,30.262755],[-97.657646,30.262754],[-97.657667,30.26275],[-97.657689,30.262745],[-97.657712,30.262739],[-97.657724,30.262735],[-97.657735,30.262732],[-97.65775,30.262728],[-97.657761,30.262724],[-97.657778,30.262719],[-97.657789,30.262716],[-97.657809,30.26271],[-97.657825,30.262708],[-97.657848,30.262706],[-97.657863,30.262705],[-97.657875,30.262705],[-97.657887,30.262705],[-97.657901,30.262705],[-97.657922,30.262707],[-97.657946,30.262712],[-97.657963,30.262715],[-97.657982,30.262718],[-97.657998,30.262719],[-97.658015,30.262717],[-97.658037,30.262713],[-97.658051,30.262711],[-97.658063,30.262709],[-97.658076,30.262707],[-97.658087,30.262704],[-97.658101,30.262701],[-97.658115,30.262698],[-97.658133,30.262697],[-97.658144,30.262696],[-97.658156,30.262695],[-97.658169,30.262691],[-97.65818,30.262686],[-97.658195,30.262681],[-97.658205,30.262678],[-97.658218,30.262674],[-97.658233,30.262673],[-97.658246,30.262673],[-97.658259,30.262675],[-97.658272,30.262677],[-97.658287,30.262676],[-97.658306,30.262672],[-97.658325,30.262668],[-97.658346,30.262664],[-97.658359,30.262663],[-97.658373,30.262663],[-97.658392,30.262666],[-97.658415,30.262668],[-97.658426,30.262668],[-97.658439,30.262665],[-97.658451,30.262661],[-97.658462,30.262656],[-97.658473,30.262647],[-97.658485,30.262636],[-97.658497,30.262625],[-97.658504,30.262618],[-97.658519,30.262606],[-97.658536,30.262595],[-97.658552,30.262587],[-97.658571,30.262582],[-97.65859,30.262579],[-97.658608,30.262576],[-97.658623,30.262572],[-97.65864,30.262567],[-97.658654,30.262564],[-97.658669,30.262563],[-97.658682,30.262561],[-97.658699,30.262559],[-97.658715,30.262554],[-97.658731,30.26255],[-97.658748,30.26255],[-97.658759,30.262556],[-97.658769,30.262562],[-97.658778,30.262567],[-97.658793,30.262574],[-97.658803,30.262578],[-97.658812,30.262583],[-97.658821,30.262592],[-97.658827,30.262602],[-97.658832,30.262611],[-97.65884,30.26262],[-97.658845,30.262629],[-97.658851,30.262638],[-97.658854,30.262648],[-97.658859,30.262659],[-97.658867,30.262667],[-97.658881,30.262665],[-97.6589,30.262663],[-97.658911,30.262663],[-97.658928,30.262663],[-97.65894,30.262662],[-97.658944,30.262647],[-97.658946,30.262638],[-97.658949,30.262626],[-97.658953,30.262615],[-97.658957,30.262603],[-97.658965,30.262586],[-97.658974,30.262571],[-97.658986,30.262557],[-97.658992,30.262549],[-97.659,30.262535],[-97.659006,30.262523],[-97.659014,30.262504],[-97.65902,30.262489],[-97.659032,30.262476],[-97.65905,30.262466],[-97.659054,30.262456],[-97.659058,30.262441],[-97.659062,30.262428],[-97.659067,30.262414],[-97.659072,30.262405],[-97.659078,30.262393],[-97.659086,30.262379],[-97.659091,30.262363],[-97.659091,30.262348],[-97.659091,30.262335],[-97.659095,30.262326],[-97.659106,30.262318],[-97.659121,30.262316],[-97.659153,30.262319],[-97.659171,30.262337],[-97.659194,30.262359],[-97.659225,30.262367],[-97.659313,30.262373],[-97.659405,30.262382],[-97.659426,30.26243],[-97.659433,30.26244],[-97.659484,30.262458],[-97.659543,30.262469],[-97.659573,30.262474],[-97.65967,30.26246],[-97.659683,30.262456],[-97.659686,30.262438],[-97.659678,30.262425],[-97.659653,30.262416],[-97.659626,30.262416],[-97.659601,30.262415],[-97.659568,30.262409],[-97.659546,30.262404],[-97.659519,30.262402],[-97.659503,30.262405],[-97.659478,30.262411],[-97.65946,30.26241],[-97.659456,30.262397],[-97.659452,30.262385],[-97.659461,30.262377],[-97.659499,30.262372],[-97.659515,30.262363],[-97.659534,30.262351],[-97.659539,30.262332],[-97.659557,30.262313],[-97.659598,30.26231],[-97.659631,30.26232],[-97.659642,30.262338],[-97.659659,30.262358],[-97.659679,30.262366],[-97.659715,30.262367],[-97.659736,30.262358],[-97.659743,30.262342],[-97.659744,30.262317],[-97.659744,30.262303],[-97.659756,30.26229],[-97.659778,30.262282],[-97.659794,30.262267],[-97.659795,30.262255],[-97.659784,30.262247],[-97.659767,30.262236],[-97.659781,30.262221],[-97.659785,30.262208],[-97.659781,30.262197],[-97.659747,30.26219],[-97.659731,30.262201],[-97.659728,30.262223],[-97.659692,30.262242],[-97.659681,30.262237],[-97.659663,30.262231],[-97.659661,30.262219],[-97.65965,30.262209],[-97.659632,30.262209],[-97.659605,30.26221],[-97.659564,30.262227],[-97.659552,30.262237],[-97.659532,30.262252],[-97.659518,30.262261],[-97.659504,30.262267],[-97.659501,30.262278],[-97.659517,30.262298],[-97.659526,30.262306],[-97.65953,30.262324],[-97.659525,30.262336],[-97.659509,30.262349],[-97.659493,30.262356],[-97.659482,30.262358],[-97.659468,30.262358],[-97.659446,30.262355],[-97.659436,30.262347],[-97.659417,30.262337],[-97.659392,30.262335],[-97.659366,30.26233],[-97.659351,30.262328],[-97.659338,30.262327],[-97.659323,30.262326],[-97.65931,30.262325],[-97.659295,30.262323],[-97.659273,30.262319],[-97.659248,30.262314],[-97.659225,30.262308],[-97.659205,30.262302],[-97.65919,30.262296],[-97.659175,30.262293],[-97.659158,30.26229],[-97.659147,30.262288],[-97.659131,30.262285],[-97.65912,30.262285],[-97.659094,30.262288],[-97.659065,30.262294],[-97.659045,30.26229],[-97.659032,30.262282],[-97.659023,30.262271],[-97.659023,30.262261],[-97.659028,30.26225],[-97.65904,30.262241],[-97.65905,30.262234],[-97.659063,30.262227],[-97.659075,30.262221],[-97.659083,30.262215],[-97.659088,30.262207],[-97.659095,30.262195],[-97.659101,30.262186],[-97.659112,30.262172],[-97.659128,30.262154],[-97.659144,30.262139],[-97.659155,30.262128],[-97.659162,30.26212],[-97.659167,30.262109],[-97.659173,30.262093],[-97.659183,30.262078],[-97.659194,30.262069],[-97.659207,30.262065],[-97.659217,30.262062],[-97.659228,30.262052],[-97.659225,30.262041],[-97.65922,30.262033],[-97.659211,30.262024],[-97.659198,30.262013],[-97.659185,30.262003],[-97.659173,30.261994],[-97.659159,30.26198],[-97.659149,30.261967],[-97.659143,30.261959],[-97.659136,30.261952],[-97.659125,30.261943],[-97.659111,30.261932],[-97.659103,30.261926],[-97.659089,30.261915],[-97.659073,30.261902],[-97.659062,30.261899],[-97.659051,30.261881],[-97.659034,30.261868],[-97.659009,30.261853],[-97.658986,30.261845],[-97.658975,30.261842],[-97.658962,30.261837],[-97.658952,30.261833],[-97.658931,30.261826],[-97.658909,30.26182],[-97.658895,30.261817],[-97.658885,30.261814],[-97.658864,30.261803],[-97.658848,30.261789],[-97.658839,30.261774],[-97.658839,30.261748],[-97.658849,30.261732],[-97.658859,30.261721],[-97.65887,30.261712],[-97.658887,30.261705],[-97.658898,30.261702],[-97.658916,30.2617],[-97.65893,30.261699],[-97.658943,30.261696],[-97.658954,30.261688],[-97.658969,30.261675],[-97.658978,30.261669],[-97.658993,30.261663],[-97.659009,30.26166],[-97.659026,30.261661],[-97.659039,30.261665],[-97.659052,30.261669],[-97.659067,30.261673],[-97.659076,30.261668],[-97.659078,30.261657],[-97.659074,30.261647],[-97.659063,30.261637],[-97.659052,30.261632],[-97.65904,30.261625],[-97.659032,30.261616],[-97.65903,30.261604],[-97.659041,30.261588],[-97.65905,30.26158],[-97.659059,30.261575],[-97.65907,30.261573],[-97.659081,30.261569],[-97.659104,30.261559],[-97.659125,30.261551],[-97.659149,30.261542],[-97.659165,30.261537],[-97.659176,30.261533],[-97.659192,30.261527],[-97.659203,30.261523],[-97.659214,30.261519],[-97.659231,30.261514],[-97.659241,30.261511],[-97.659258,30.261507],[-97.659269,30.261504],[-97.659295,30.261498],[-97.65931,30.261495],[-97.65932,30.261492],[-97.659345,30.261487],[-97.659369,30.261485],[-97.659383,30.261485],[-97.659394,30.261486],[-97.659409,30.261487],[-97.65942,30.26149],[-97.659432,30.261496],[-97.65944,30.261503],[-97.659452,30.261507],[-97.659463,30.261505],[-97.65947,30.261496],[-97.65947,30.261484],[-97.659463,30.261474],[-97.659456,30.261466],[-97.659449,30.261453],[-97.659464,30.261449],[-97.659478,30.261446],[-97.659491,30.261444],[-97.659503,30.261441],[-97.659522,30.261438],[-97.659534,30.261435],[-97.659546,30.261432],[-97.659556,30.261429],[-97.659569,30.261426],[-97.659584,30.261422],[-97.659596,30.261419],[-97.659612,30.261416],[-97.659632,30.261413],[-97.659652,30.261411],[-97.659671,30.26141],[-97.659689,30.261408],[-97.659708,30.261408],[-97.659727,30.261409],[-97.65975,30.261411],[-97.65977,30.261414],[-97.659785,30.261417],[-97.659804,30.261421],[-97.659818,30.26142],[-97.659829,30.261412],[-97.659834,30.261399],[-97.659843,30.261386],[-97.659856,30.261381],[-97.659873,30.26138],[-97.659887,30.261384],[-97.659902,30.26139],[-97.659919,30.261397],[-97.659933,30.261401],[-97.659948,30.261407],[-97.659958,30.261415],[-97.659971,30.261421],[-97.659983,30.261422],[-97.659998,30.261416],[-97.660005,30.261407],[-97.66001,30.261399],[-97.660016,30.26139],[-97.660027,30.261378],[-97.66004,30.261367],[-97.660075,30.261353],[-97.660085,30.261357],[-97.660106,30.261368],[-97.660121,30.261385],[-97.660153,30.26143],[-97.660174,30.261464],[-97.66018,30.261483],[-97.660184,30.261495],[-97.660191,30.261516],[-97.660197,30.26153],[-97.660201,30.261542],[-97.660203,30.261552],[-97.660205,30.261564],[-97.660206,30.261574],[-97.660208,30.261588],[-97.66021,30.261602],[-97.660211,30.261617],[-97.660213,30.261632],[-97.660215,30.261648],[-97.660216,30.261659],[-97.660219,30.261679],[-97.660222,30.261696],[-97.660224,30.26171],[-97.660226,30.261719],[-97.660232,30.261741],[-97.660237,30.261761],[-97.660243,30.261781],[-97.660249,30.2618],[-97.660253,30.261811],[-97.660256,30.26182],[-97.66026,30.261831],[-97.660266,30.261847],[-97.66027,30.261859],[-97.660274,30.261868],[-97.66028,30.26188],[-97.660287,30.261894],[-97.66029,30.261917],[-97.660279,30.261926],[-97.660265,30.261928],[-97.660249,30.261927],[-97.660236,30.261926],[-97.660225,30.261923],[-97.660211,30.26192],[-97.660196,30.261917],[-97.660183,30.261916],[-97.660162,30.261919],[-97.660148,30.261927],[-97.660136,30.261927],[-97.660122,30.261924],[-97.660109,30.261919],[-97.660091,30.261912],[-97.660071,30.261903],[-97.660052,30.261893],[-97.660033,30.261889],[-97.660009,30.261882],[-97.659997,30.261882],[-97.659982,30.261882],[-97.65997,30.261881],[-97.659959,30.261882],[-97.659947,30.261883],[-97.65992,30.261888],[-97.659899,30.261895],[-97.659881,30.261906],[-97.659868,30.261915],[-97.659861,30.261932],[-97.659858,30.26195],[-97.659868,30.261959],[-97.659882,30.261965],[-97.659902,30.261967],[-97.659933,30.261966],[-97.659946,30.261966],[-97.659966,30.261967],[-97.659988,30.261974],[-97.660006,30.26198],[-97.660026,30.261988],[-97.660043,30.261994],[-97.660055,30.261999],[-97.660071,30.262005],[-97.660089,30.262016],[-97.660109,30.26203],[-97.660122,30.26204],[-97.66016,30.262048],[-97.660193,30.262063],[-97.660233,30.262079],[-97.660251,30.262089],[-97.660282,30.262102],[-97.660322,30.262118],[-97.660353,30.262127],[-97.660391,30.262142],[-97.660412,30.262154],[-97.660437,30.262168],[-97.66046,30.26217],[-97.660491,30.262184],[-97.660522,30.262202],[-97.660539,30.26221],[-97.660589,30.262227],[-97.66062,30.262241],[-97.660658,30.26225],[-97.660674,30.262251],[-97.660695,30.262256],[-97.660711,30.262258],[-97.660738,30.262262],[-97.660757,30.262262],[-97.66078,30.262273],[-97.660825,30.262296],[-97.660864,30.262315],[-97.660928,30.262322],[-97.660991,30.26232],[-97.661052,30.262315],[-97.661147,30.26235],[-97.661343,30.262432],[-97.661479,30.262501],[-97.661572,30.262559],[-97.661884,30.26277],[-97.661972,30.262817],[-97.662031,30.262834],[-97.662125,30.262847],[-97.662213,30.262843],[-97.66228,30.262824],[-97.662347,30.262792],[-97.662411,30.262746],[-97.662475,30.262685],[-97.662564,30.26258],[-97.662666,30.262423],[-97.662784,30.262261],[-97.662859,30.262181],[-97.66292,30.262133],[-97.66299,30.262093],[-97.663055,30.262066],[-97.66311,30.262053],[-97.663239,30.262045],[-97.663531,30.262051],[-97.663763,30.262071],[-97.664346,30.262153],[-97.664618,30.262186],[-97.664681,30.262202],[-97.664837,30.262262],[-97.665275,30.262359],[-97.665479,30.262401],[-97.665825,30.262461],[-97.666011,30.262481],[-97.66629,30.262494],[-97.666594,30.262527],[-97.666832,30.262548],[-97.666936,30.262552],[-97.667082,30.262541],[-97.667192,30.262538],[-97.667348,30.262544],[-97.667597,30.262587],[-97.667832,30.262612],[-97.668043,30.262617],[-97.66844,30.262669],[-97.668478,30.262679],[-97.668567,30.262704],[-97.668636,30.262728],[-97.668737,30.262777],[-97.66883,30.262798],[-97.66891,30.262802],[-97.669026,30.262794],[-97.669189,30.262764],[-97.669319,30.262753],[-97.669365,30.262737],[-97.669426,30.262702],[-97.669506,30.262637],[-97.669558,30.262606],[-97.669625,30.262584],[-97.669742,30.262564],[-97.669989,30.262554],[-97.670102,30.26256],[-97.670488,30.262614],[-97.670569,30.262619],[-97.670826,30.262615],[-97.67109,30.262616],[-97.671158,30.262628],[-97.671223,30.262649],[-97.671293,30.262682],[-97.671451,30.262771],[-97.671647,30.262893],[-97.671722,30.262983],[-97.67176,30.263037],[-97.671964,30.263131],[-97.672144,30.263162],[-97.672186,30.263173],[-97.672277,30.263224],[-97.672366,30.263273],[-97.672454,30.263275],[-97.67248,30.263276],[-97.672511,30.263269],[-97.672651,30.263296],[-97.67292,30.263347],[-97.672822,30.263497],[-97.672651,30.263754],[-97.67261,30.263815],[-97.672486,30.26401],[-97.678417,30.265348],[-97.678254,30.265728],[-97.678166,30.265913],[-97.678086,30.266053],[-97.678058,30.266111],[-97.678029,30.266243],[-97.677986,30.266329],[-97.677904,30.266446],[-97.67786,30.2665],[-97.6778,30.266557],[-97.677764,30.266575],[-97.677681,30.266575],[-97.67763,30.266598],[-97.677511,30.266666],[-97.677495,30.266684],[-97.677488,30.266709],[-97.677498,30.266819],[-97.677508,30.266869],[-97.677518,30.266889],[-97.677714,30.267184],[-97.6778,30.267326],[-97.67801,30.267755],[-97.67804,30.267793],[-97.678108,30.267828],[-97.678334,30.2679],[-97.678503,30.267946],[-97.67873,30.267993],[-97.678753,30.267986],[-97.678782,30.267967],[-97.678825,30.267919],[-97.678892,30.267798],[-97.678895,30.267776],[-97.678772,30.267613],[-97.678734,30.267548],[-97.678718,30.267497],[-97.678694,30.267367],[-97.678692,30.267319],[-97.678701,30.267267],[-97.678733,30.2672],[-97.678767,30.267169],[-97.678798,30.267156],[-97.678853,30.267147],[-97.678987,30.267144],[-97.679069,30.26715],[-97.679116,30.26716],[-97.679439,30.267139],[-97.680453,30.267642],[-97.679673,30.268904],[-97.679913,30.269069],[-97.680514,30.269321],[-97.681224,30.269773],[-97.68198,30.270391],[-97.683947,30.271229],[-97.684739,30.271589],[-97.685581,30.271959],[-97.686383,30.272297],[-97.687732,30.272924],[-97.688697,30.273335],[-97.690167,30.274031],[-97.690432,30.273566],[-97.690679,30.273161],[-97.691407,30.272032],[-97.69163,30.271753],[-97.691655,30.271708],[-97.691851,30.271362],[-97.692263,30.270708],[-97.692903,30.269698],[-97.693498,30.268805],[-97.694371,30.267437],[-97.696094,30.268041],[-97.69628,30.268106],[-97.696714,30.269562],[-97.696614,30.269796],[-97.696173,30.270832],[-97.695272,30.27275],[-97.694784,30.273826],[-97.696431,30.273885],[-97.697915,30.273561],[-97.69877,30.273432],[-97.699877,30.273248],[-97.70132,30.27301],[-97.703195,30.272697],[-97.704837,30.272424],[-97.705517,30.271327],[-97.706389,30.269903],[-97.706901,30.269025],[-97.707559,30.267884],[-97.707938,30.267251],[-97.708531,30.266229],[-97.709048,30.265392],[-97.710278,30.264779],[-97.710985,30.264469],[-97.711552,30.264206],[-97.71198,30.26389],[-97.712767,30.263048],[-97.713239,30.263198],[-97.713376,30.263242],[-97.713675,30.263248],[-97.714822,30.262732],[-97.715362,30.262438],[-97.715941,30.262233],[-97.716706,30.261844],[-97.717468,30.26148],[-97.718044,30.261577],[-97.72212,30.262582],[-97.724143,30.263242],[-97.725122,30.263586],[-97.726146,30.263959],[-97.727119,30.264339],[-97.728001,30.264662],[-97.72889,30.26495],[-97.729091,30.265023],[-97.730077,30.265326],[-97.730343,30.265431],[-97.73113,30.265667],[-97.731726,30.265918],[-97.732157,30.266056],[-97.733182,30.266368],[-97.733877,30.266582],[-97.734207,30.266684],[-97.73438,30.266737],[-97.734045,30.267651],[-97.734006,30.267758],[-97.733701,30.268587],[-97.733326,30.269612],[-97.733004,30.27047],[-97.732546,30.271724],[-97.732506,30.271851],[-97.732796,30.271839],[-97.732574,30.272484],[-97.73199,30.27413],[-97.731873,30.274494],[-97.731781,30.274783],[-97.731677,30.275128],[-97.731572,30.275472],[-97.73133,30.276147],[-97.7312,30.276679],[-97.730926,30.277463],[-97.730494,30.278565],[-97.730272,30.278526],[-97.730191,30.278519],[-97.730056,30.278511],[-97.729347,30.279935],[-97.728998,30.280659],[-97.727946,30.282321],[-97.727815,30.282507],[-97.727409,30.283083],[-97.727484,30.283105],[-97.727539,30.283115],[-97.727657,30.28315],[-97.727973,30.283232],[-97.730981,30.283923],[-97.730732,30.285024],[-97.730174,30.286808],[-97.729959,30.287508],[-97.72994,30.287571],[-97.729185,30.288332],[-97.729041,30.288212],[-97.728704,30.287967],[-97.727672,30.287481],[-97.726994,30.287199],[-97.726773,30.287127],[-97.726612,30.287056],[-97.725864,30.286814],[-97.725221,30.286628],[-97.725173,30.286604],[-97.725088,30.286561],[-97.724992,30.286513],[-97.724964,30.286499],[-97.724936,30.286487],[-97.724841,30.286444],[-97.724724,30.286384],[-97.724146,30.286089],[-97.724034,30.286028],[-97.723755,30.285875],[-97.72297,30.285345],[-97.722881,30.285272],[-97.722786,30.285195],[-97.722182,30.284678],[-97.721991,30.284455],[-97.721907,30.284334],[-97.721719,30.284246],[-97.72145,30.284126],[-97.721213,30.284058],[-97.72109,30.284035],[-97.720828,30.284061],[-97.720492,30.284089],[-97.720169,30.284121],[-97.719771,30.284206],[-97.719114,30.284284],[-97.718434,30.284416],[-97.718185,30.284457],[-97.717151,30.28461],[-97.715451,30.284894],[-97.714194,30.285097],[-97.713064,30.285258],[-97.712492,30.285334],[-97.7121,30.285403],[-97.711152,30.285546],[-97.71021,30.285672],[-97.708939,30.285878],[-97.708567,30.285944],[-97.708024,30.28604],[-97.707794,30.286074],[-97.706488,30.286245],[-97.706527,30.286319],[-97.706661,30.286646],[-97.706905,30.287127],[-97.70699,30.287394],[-97.707044,30.287587],[-97.707113,30.287882],[-97.707245,30.288436],[-97.707384,30.289198],[-97.707272,30.289194],[-97.707261,30.289194],[-97.707156,30.289201],[-97.707117,30.289204],[-97.706551,30.289244],[-97.706079,30.289287],[-97.705378,30.289297],[-97.70503,30.289224],[-97.704668,30.289099],[-97.704482,30.288998],[-97.702054,30.287884],[-97.70131,30.287542],[-97.701109,30.287628],[-97.700302,30.288195],[-97.698576,30.289094],[-97.698526,30.289121],[-97.697732,30.289471],[-97.696704,30.289925],[-97.696683,30.289932],[-97.69522,30.290208],[-97.694931,30.290165],[-97.693752,30.289988],[-97.692731,30.289701],[-97.692029,30.289504],[-97.691145,30.289591],[-97.690359,30.289918],[-97.689853,30.29037],[-97.689495,30.29089],[-97.689438,30.291085],[-97.689297,30.291571],[-97.689283,30.292539],[-97.689251,30.29346],[-97.689216,30.294492],[-97.689211,30.294625],[-97.688871,30.295336],[-97.688341,30.295829],[-97.688009,30.296138],[-97.68764,30.296881],[-97.687067,30.298187],[-97.685916,30.300157],[-97.68559,30.300525],[-97.685143,30.301029],[-97.684334,30.301791],[-97.683039,30.302977],[-97.681828,30.304124],[-97.681321,30.304589],[-97.680078,30.306483],[-97.67955,30.307327],[-97.678558,30.307792],[-97.678373,30.307836],[-97.678253,30.307855],[-97.677099,30.307964],[-97.676192,30.308059],[-97.676136,30.308079],[-97.673977,30.307996],[-97.673475,30.307972],[-97.673042,30.30799],[-97.672031,30.308219],[-97.670774,30.308537],[-97.671032,30.309098],[-97.671541,30.309571],[-97.672636,30.310028],[-97.673596,30.310474],[-97.673854,30.310595],[-97.67415,30.310732],[-97.675197,30.31122],[-97.676016,30.311635],[-97.676532,30.311919],[-97.676578,30.311947],[-97.676993,30.312379],[-97.677288,30.312716],[-97.67757,30.312979],[-97.677682,30.313076],[-97.677877,30.313221],[-97.678196,30.313374],[-97.679491,30.314015],[-97.680933,30.31476],[-97.681087,30.314894],[-97.681216,30.315026],[-97.681317,30.315149],[-97.681376,30.315236],[-97.681441,30.31535],[-97.681495,30.315473],[-97.681535,30.315604],[-97.681572,30.315738],[-97.681597,30.315886],[-97.681594,30.316072],[-97.681584,30.31623],[-97.681555,30.316359],[-97.681513,30.316475],[-97.681456,30.316599],[-97.681386,30.316735],[-97.68131,30.316863],[-97.681136,30.317114],[-97.680137,30.31868],[-97.680028,30.318834],[-97.679946,30.318972],[-97.679629,30.31946],[-97.67944,30.31976],[-97.679325,30.319948],[-97.67923,30.320113],[-97.67916,30.320247],[-97.679129,30.320353],[-97.679108,30.320462],[-97.67905,30.320756],[-97.679044,30.320983],[-97.679096,30.321269],[-97.679188,30.321599],[-97.679302,30.321799],[-97.679414,30.321964],[-97.679495,30.322064],[-97.679626,30.322195],[-97.679752,30.322304],[-97.679888,30.322413],[-97.680064,30.322514],[-97.68024,30.322608],[-97.680363,30.322678],[-97.680433,30.322731],[-97.68051,30.322791],[-97.680612,30.3229],[-97.680793,30.323095],[-97.681031,30.323011],[-97.682269,30.3226],[-97.683445,30.322211],[-97.684302,30.321975],[-97.684884,30.321861],[-97.68705,30.321639],[-97.687892,30.321581],[-97.688733,30.321522],[-97.688896,30.321512],[-97.68899,30.321506],[-97.689092,30.321496],[-97.689215,30.321485],[-97.690106,30.321402],[-97.690799,30.321384],[-97.693025,30.321327],[-97.694163,30.321425],[-97.695034,30.321459],[-97.695183,30.321465],[-97.694901,30.321869],[-97.694485,30.322421],[-97.694187,30.322884],[-97.694144,30.322956],[-97.694102,30.323016],[-97.693614,30.323793],[-97.693589,30.32384],[-97.693553,30.323908],[-97.692996,30.324793],[-97.692939,30.324904],[-97.692763,30.325192],[-97.692306,30.325943],[-97.692252,30.326039],[-97.692231,30.326029],[-97.689379,30.324617],[-97.688487,30.325871],[-97.68781,30.32699],[-97.688375,30.327263],[-97.688434,30.327313],[-97.688488,30.32737],[-97.688604,30.327548],[-97.6891,30.328295],[-97.689167,30.328369],[-97.689259,30.328447],[-97.68963,30.328644],[-97.690335,30.328995],[-97.690241,30.329109],[-97.689861,30.329568],[-97.689675,30.329707],[-97.689563,30.32979],[-97.689227,30.329954],[-97.688992,30.330036],[-97.688801,30.330102],[-97.688465,30.330246],[-97.68842,30.330265],[-97.687962,30.330489],[-97.687706,30.330657],[-97.687364,30.330996],[-97.686803,30.331777],[-97.686514,30.332224],[-97.686456,30.332289],[-97.686411,30.332356],[-97.686473,30.332376],[-97.686534,30.332416],[-97.686392,30.332622],[-97.68623,30.332844],[-97.686219,30.332865],[-97.686059,30.333112],[-97.68333,30.337341],[-97.682388,30.338808],[-97.682304,30.338944],[-97.682252,30.339024],[-97.680786,30.341217],[-97.680704,30.341316],[-97.680655,30.341396],[-97.680087,30.342106],[-97.679406,30.342867],[-97.679383,30.342893],[-97.679361,30.342916],[-97.678596,30.343798],[-97.678505,30.343903],[-97.678397,30.344031],[-97.678316,30.344146],[-97.677962,30.344664],[-97.677594,30.345725],[-97.677557,30.345823],[-97.677527,30.345936],[-97.677241,30.34692],[-97.677171,30.347159],[-97.677088,30.347437],[-97.676318,30.350091],[-97.676101,30.35068],[-97.676063,30.350751],[-97.676033,30.350807],[-97.676013,30.350844],[-97.675975,30.350917],[-97.67521,30.352233],[-97.675161,30.352307],[-97.675125,30.352353],[-97.675103,30.352388],[-97.675041,30.352486],[-97.674963,30.352609],[-97.674485,30.353369],[-97.674438,30.353443],[-97.674384,30.353529],[-97.673681,30.354607],[-97.673477,30.354929],[-97.672278,30.356728],[-97.672245,30.356771],[-97.672213,30.356825],[-97.670972,30.358773],[-97.670923,30.358842],[-97.670877,30.358917],[-97.669015,30.361771],[-97.668749,30.362263],[-97.669466,30.362445],[-97.66927,30.362948],[-97.669595,30.362962],[-97.670153,30.363015],[-97.670791,30.363015],[-97.671123,30.363077],[-97.671633,30.363333],[-97.671668,30.363279],[-97.672013,30.362749],[-97.672113,30.362296],[-97.672117,30.362278],[-97.672109,30.362257],[-97.67211,30.362219],[-97.672138,30.362166],[-97.672425,30.362188],[-97.672634,30.362204],[-97.673088,30.362255],[-97.673109,30.362257],[-97.673165,30.362272],[-97.67324,30.362267],[-97.673316,30.362267],[-97.673349,30.362279],[-97.673389,30.362315],[-97.673444,30.362332],[-97.673534,30.362403],[-97.673612,30.362446],[-97.673677,30.362464],[-97.673722,30.362481],[-97.673864,30.362521],[-97.673959,30.362538],[-97.673996,30.362548],[-97.674055,30.362573],[-97.674157,30.362643],[-97.67419,30.362653],[-97.674238,30.362657],[-97.674408,30.362864],[-97.674468,30.36293],[-97.674539,30.362976],[-97.674647,30.363028],[-97.674753,30.363066],[-97.674781,30.36308],[-97.674833,30.363124],[-97.674898,30.363211],[-97.67536,30.362663],[-97.675686,30.362805],[-97.678958,30.364254],[-97.681847,30.365569],[-97.681893,30.365411],[-97.682829,30.36588],[-97.683037,30.365985],[-97.683233,30.366083],[-97.682841,30.36671],[-97.682326,30.367481],[-97.68152,30.368685],[-97.681343,30.36896],[-97.681161,30.369239],[-97.68072,30.369954],[-97.680814,30.370042],[-97.680921,30.370142],[-97.681021,30.37026],[-97.681038,30.370403],[-97.681013,30.37052],[-97.68036,30.371613],[-97.678689,30.374401],[-97.678349,30.374968],[-97.677645,30.376053],[-97.676936,30.377224],[-97.676721,30.377187],[-97.67649,30.37713],[-97.676163,30.377062],[-97.675506,30.378215],[-97.675241,30.378691],[-97.674915,30.379314],[-97.674674,30.379856],[-97.674644,30.379921],[-97.674581,30.380119],[-97.6744,30.380701],[-97.674387,30.380733],[-97.674268,30.381121],[-97.674244,30.381222],[-97.674158,30.381595],[-97.674073,30.381969],[-97.673875,30.382766],[-97.673689,30.383653],[-97.673418,30.384795],[-97.673098,30.386141],[-97.672603,30.388207],[-97.672573,30.388387],[-97.672527,30.388381],[-97.672381,30.388385],[-97.67237,30.388429],[-97.671621,30.391735],[-97.671511,30.392858],[-97.671463,30.393349],[-97.671541,30.394346],[-97.671595,30.394765],[-97.67172,30.395357],[-97.671862,30.395788],[-97.672318,30.397173],[-97.672599,30.397696],[-97.673032,30.398544],[-97.673272,30.399032],[-97.67328,30.399049],[-97.673319,30.399128],[-97.673333,30.399158],[-97.673399,30.399292],[-97.673473,30.399294],[-97.673595,30.399299],[-97.673739,30.399303],[-97.673883,30.399307],[-97.673932,30.399308],[-97.674038,30.39958],[-97.674071,30.399663],[-97.674192,30.399893],[-97.674302,30.400102],[-97.674657,30.400814],[-97.674943,30.401595],[-97.675102,30.402102],[-97.675143,30.402271],[-97.675275,30.403024],[-97.67529,30.403107],[-97.675363,30.403546],[-97.675412,30.404446],[-97.675403,30.404778],[-97.675356,30.406502],[-97.675288,30.407453],[-97.675285,30.407502],[-97.675243,30.408035],[-97.674724,30.407996],[-97.67452,30.407963],[-97.674476,30.407956],[-97.673959,30.407868],[-97.673819,30.407803],[-97.67322,30.407528],[-97.672764,30.407331],[-97.672307,30.407107],[-97.671683,30.40685],[-97.670671,30.406361],[-97.670208,30.406122],[-97.670037,30.406034],[-97.669537,30.405799],[-97.669057,30.405632],[-97.668817,30.405559],[-97.668475,30.405455],[-97.666048,30.405252],[-97.665785,30.405248],[-97.664072,30.405171]],[[-97.618637,30.387262],[-97.618798,30.387003],[-97.618928,30.386794],[-97.618545,30.386619],[-97.618347,30.38653],[-97.618221,30.386722],[-97.618204,30.386748],[-97.618033,30.38702],[-97.617932,30.387162],[-97.618521,30.38744],[-97.61862,30.387287],[-97.618637,30.387262]],[[-97.621938,30.389183],[-97.621999,30.389099],[-97.62032,30.388299],[-97.619988,30.388786],[-97.620099,30.388878],[-97.620318,30.389057],[-97.620436,30.389102],[-97.62022,30.389441],[-97.619444,30.390656],[-97.619219,30.391008],[-97.620404,30.391581],[-97.621364,30.390081],[-97.621938,30.389183]],[[-97.649974,30.323238],[-97.650004,30.323256],[-97.650143,30.323334],[-97.65019,30.323361],[-97.650254,30.323397],[-97.650533,30.323555],[-97.651333,30.323701],[-97.652105,30.323841],[-97.652269,30.323871],[-97.652453,30.323905],[-97.652348,30.322337],[-97.652204,30.32236],[-97.651485,30.322457],[-97.650991,30.322505],[-97.650498,30.322531],[-97.649671,30.322597],[-97.649291,30.322636],[-97.649018,30.32268],[-97.648778,30.322742],[-97.648415,30.322859],[-97.646624,30.323454],[-97.644447,30.324189],[-97.644225,30.324262],[-97.644274,30.32434],[-97.644109,30.32576],[-97.644072,30.326074],[-97.644043,30.326298],[-97.643965,30.326892],[-97.643957,30.326948],[-97.643953,30.326996],[-97.643938,30.327145],[-97.643924,30.327288],[-97.643829,30.327292],[-97.643752,30.328337],[-97.643747,30.328665],[-97.643741,30.328998],[-97.644034,30.328967],[-97.644213,30.328947],[-97.644453,30.32892],[-97.644641,30.3289],[-97.648054,30.328638],[-97.648067,30.328607],[-97.648105,30.328541],[-97.648182,30.328428],[-97.648196,30.328386],[-97.648197,30.328348],[-97.648174,30.328294],[-97.648142,30.328236],[-97.64812,30.328163],[-97.648111,30.328112],[-97.648108,30.328002],[-97.648098,30.327943],[-97.648066,30.327852],[-97.64802,30.327698],[-97.648013,30.327646],[-97.648013,30.327517],[-97.648024,30.327478],[-97.648056,30.327428],[-97.648127,30.327377],[-97.648159,30.32736],[-97.648225,30.327333],[-97.64828,30.327317],[-97.648359,30.327306],[-97.648468,30.327308],[-97.648545,30.32732],[-97.648588,30.327335],[-97.648651,30.327366],[-97.648807,30.327478],[-97.648834,30.327504],[-97.648851,30.327531],[-97.648853,30.327568],[-97.648845,30.327607],[-97.648808,30.327715],[-97.648801,30.327761],[-97.648794,30.32788],[-97.64874,30.328043],[-97.648739,30.32811],[-97.648757,30.328151],[-97.648783,30.328172],[-97.648824,30.32818],[-97.648861,30.328175],[-97.648904,30.328163],[-97.649013,30.328124],[-97.649095,30.328084],[-97.649169,30.328061],[-97.649285,30.328032],[-97.649544,30.327932],[-97.649596,30.327922],[-97.649718,30.327929],[-97.649856,30.327918],[-97.649905,30.327906],[-97.649961,30.327879],[-97.649995,30.327851],[-97.650013,30.327823],[-97.650012,30.32779],[-97.649988,30.327736],[-97.649961,30.327698],[-97.649929,30.327668],[-97.649846,30.327607],[-97.649557,30.327429],[-97.649479,30.327361],[-97.649272,30.327198],[-97.649234,30.326997],[-97.649083,30.326198],[-97.649488,30.325869],[-97.649511,30.325628],[-97.649531,30.325416],[-97.649607,30.325191],[-97.649625,30.325136],[-97.649778,30.324681],[-97.649738,30.324562],[-97.649727,30.324531],[-97.649697,30.324444],[-97.649692,30.324428],[-97.649688,30.324416],[-97.649681,30.324397],[-97.649678,30.324387],[-97.649676,30.324365],[-97.649673,30.324338],[-97.649619,30.323734],[-97.649656,30.323683],[-97.649974,30.323238]],[[-97.606108,30.342441],[-97.60577,30.342961],[-97.605435,30.343478],[-97.605121,30.343961],[-97.605097,30.343999],[-97.604759,30.344519],[-97.604452,30.344992],[-97.604422,30.345038],[-97.604085,30.345558],[-97.603747,30.346078],[-97.603409,30.346598],[-97.603072,30.347118],[-97.603012,30.34721],[-97.602736,30.347636],[-97.602319,30.348277],[-97.603996,30.349112],[-97.604092,30.349169],[-97.605865,30.350085],[-97.605908,30.350016],[-97.606361,30.349289],[-97.606704,30.348759],[-97.606952,30.348367],[-97.608027,30.346683],[-97.609083,30.345029],[-97.609325,30.344651],[-97.609571,30.344265],[-97.610614,30.342631],[-97.611293,30.341595],[-97.610466,30.341186],[-97.609633,30.340775],[-97.609459,30.340673],[-97.608626,30.340258],[-97.607816,30.339861],[-97.607424,30.339671],[-97.607042,30.339486],[-97.60665,30.339296],[-97.606276,30.339115],[-97.606085,30.339022],[-97.606098,30.339004],[-97.605806,30.338861],[-97.605796,30.338882],[-97.604834,30.338415],[-97.603876,30.339891],[-97.60484,30.34036],[-97.60512,30.340512],[-97.605685,30.340785],[-97.606075,30.340974],[-97.606464,30.341162],[-97.606851,30.341349],[-97.606446,30.34192],[-97.606108,30.342441]],[[-97.582408,30.306101],[-97.582384,30.306139],[-97.581559,30.307417],[-97.582119,30.312227],[-97.58201,30.313716],[-97.582041,30.313748],[-97.58294,30.314696],[-97.585119,30.316992],[-97.586406,30.317583],[-97.586496,30.317623],[-97.589277,30.313252],[-97.591966,30.309024],[-97.591382,30.308741],[-97.585158,30.305726],[-97.583248,30.3048],[-97.583191,30.304888],[-97.582408,30.306101]],[[-97.657553,30.324577],[-97.657511,30.324642],[-97.657183,30.325155],[-97.657249,30.325177],[-97.657309,30.325198],[-97.657352,30.325213],[-97.657642,30.325312],[-97.658232,30.325515],[-97.658261,30.325524],[-97.658295,30.325536],[-97.658317,30.325548],[-97.65833,30.325556],[-97.658381,30.325585],[-97.658437,30.325605],[-97.65897,30.325781],[-97.659129,30.325834],[-97.659243,30.325872],[-97.659364,30.325913],[-97.659395,30.325924],[-97.659423,30.325934],[-97.659486,30.325956],[-97.659545,30.325976],[-97.659569,30.325984],[-97.659584,30.325989],[-97.659903,30.326095],[-97.659979,30.326121],[-97.660672,30.326351],[-97.660699,30.326361],[-97.660365,30.326879],[-97.66035,30.326903],[-97.660291,30.326995],[-97.660281,30.327009],[-97.660197,30.327139],[-97.660179,30.327167],[-97.660128,30.327227],[-97.660116,30.327262],[-97.660102,30.327285],[-97.660088,30.32731],[-97.66008,30.327323],[-97.660047,30.327378],[-97.660002,30.327453],[-97.659999,30.327474],[-97.65996,30.3278],[-97.661274,30.327709],[-97.661755,30.327688],[-97.66274,30.327639],[-97.664136,30.327494],[-97.665197,30.327336],[-97.666488,30.32704],[-97.6677,30.326711],[-97.668333,30.326539],[-97.670043,30.325936],[-97.670128,30.325843],[-97.670266,30.325652],[-97.670378,30.325435],[-97.670481,30.325163],[-97.670517,30.325013],[-97.670536,30.324822],[-97.670523,30.324552],[-97.670464,30.324276],[-97.670282,30.323884],[-97.66954,30.323355],[-97.668915,30.322901],[-97.668828,30.322843],[-97.667767,30.322032],[-97.666636,30.321145],[-97.666171,30.320747],[-97.665775,30.320407],[-97.664863,30.319507],[-97.664234,30.318794],[-97.664011,30.318521],[-97.663406,30.317821],[-97.663351,30.317736],[-97.663024,30.31723],[-97.662904,30.317128],[-97.66282,30.317088],[-97.662716,30.317077],[-97.662616,30.317084],[-97.66257,30.3171],[-97.662527,30.317115],[-97.662372,30.317202],[-97.661976,30.31776],[-97.661371,30.3187],[-97.660864,30.31939],[-97.66079,30.319509],[-97.660513,30.319958],[-97.65978,30.32115],[-97.659224,30.321996],[-97.658834,30.322596],[-97.657879,30.324125],[-97.657553,30.324577]],[[-97.641914,30.327979],[-97.642412,30.327203],[-97.642434,30.327168],[-97.642675,30.326793],[-97.64291,30.326427],[-97.641912,30.325943],[-97.641901,30.325938],[-97.640902,30.325453],[-97.640874,30.325381],[-97.639804,30.325738],[-97.639472,30.325849],[-97.637507,30.326502],[-97.63688,30.325931],[-97.636597,30.326168],[-97.63691,30.326473],[-97.637093,30.326641],[-97.635321,30.32723],[-97.634996,30.326955],[-97.634849,30.326808],[-97.634645,30.326626],[-97.634441,30.326444],[-97.634179,30.326665],[-97.634069,30.32675],[-97.632237,30.325072],[-97.629957,30.322987],[-97.630634,30.321943],[-97.631398,30.320753],[-97.63188,30.320005],[-97.632976,30.318288],[-97.632817,30.318195],[-97.628215,30.315968],[-97.629408,30.311627],[-97.629533,30.311169],[-97.62967,30.310672],[-97.630121,30.309031],[-97.630143,30.308949],[-97.630166,30.308867],[-97.63019,30.308779],[-97.630201,30.308758],[-97.63022,30.308704],[-97.63026,30.308597],[-97.630271,30.308571],[-97.630282,30.308544],[-97.630349,30.308397],[-97.630415,30.308263],[-97.630492,30.308126],[-97.630575,30.307993],[-97.630665,30.307862],[-97.631173,30.308183],[-97.63409,30.310027],[-97.637269,30.312012],[-97.637597,30.311799],[-97.637969,30.311592],[-97.638741,30.311384],[-97.63938,30.311212],[-97.640376,30.310994],[-97.640872,30.310706],[-97.640629,30.310402],[-97.640656,30.310384],[-97.640682,30.310368],[-97.640708,30.310352],[-97.64073,30.310337],[-97.641003,30.310631],[-97.641414,30.310394],[-97.642252,30.309469],[-97.642718,30.308955],[-97.643232,30.307909],[-97.643441,30.307584],[-97.64348,30.307519],[-97.642126,30.30691],[-97.641722,30.306726],[-97.641599,30.306669],[-97.641466,30.30661],[-97.641413,30.30661],[-97.641399,30.306604],[-97.641193,30.30652],[-97.641094,30.306476],[-97.641049,30.306496],[-97.640925,30.306549],[-97.640869,30.306573],[-97.640751,30.306618],[-97.640686,30.306642],[-97.640456,30.306715],[-97.64035,30.306748],[-97.640238,30.306777],[-97.640121,30.306803],[-97.640063,30.306824],[-97.640025,30.30669],[-97.639742,30.306741],[-97.639423,30.306778],[-97.639155,30.306792],[-97.638917,30.306792],[-97.638733,30.306783],[-97.638635,30.306776],[-97.638437,30.306755],[-97.638261,30.30673],[-97.637657,30.30663],[-97.635334,30.306242],[-97.634572,30.306115],[-97.634465,30.306102],[-97.634358,30.306091],[-97.634266,30.306084],[-97.634082,30.306077],[-97.633959,30.306075],[-97.63379,30.306079],[-97.633653,30.306087],[-97.633512,30.30609],[-97.633373,30.306099],[-97.633242,30.306111],[-97.633142,30.30612],[-97.633019,30.306131],[-97.632897,30.306145],[-97.632775,30.306163],[-97.632654,30.306183],[-97.632533,30.306207],[-97.632413,30.306235],[-97.632686,30.306245],[-97.632875,30.306253],[-97.632786,30.306328],[-97.63271,30.30634],[-97.632545,30.306365],[-97.632374,30.306406],[-97.632212,30.306447],[-97.632049,30.306496],[-97.631889,30.306552],[-97.631812,30.306582],[-97.631579,30.306683],[-97.631429,30.306758],[-97.631284,30.306839],[-97.631144,30.306926],[-97.631008,30.307019],[-97.630878,30.307117],[-97.630753,30.307221],[-97.630694,30.307275],[-97.63064,30.307324],[-97.630573,30.307391],[-97.630497,30.30747],[-97.630452,30.307519],[-97.630436,30.307538],[-97.630407,30.307571],[-97.630362,30.307626],[-97.630319,30.30768],[-97.630256,30.307786],[-97.630207,30.307881],[-97.630186,30.307932],[-97.630145,30.308032],[-97.630064,30.308253],[-97.62998,30.308474],[-97.629905,30.308699],[-97.629786,30.309055],[-97.629778,30.309087],[-97.629752,30.309188],[-97.629816,30.308697],[-97.629891,30.308121],[-97.629861,30.308179],[-97.629833,30.308238],[-97.629806,30.308297],[-97.629781,30.308356],[-97.629756,30.308416],[-97.629733,30.308476],[-97.629712,30.308536],[-97.629691,30.308597],[-97.629672,30.308658],[-97.62966,30.308698],[-97.629654,30.308719],[-97.62954,30.309128],[-97.629691,30.309171],[-97.629464,30.310004],[-97.628853,30.309721],[-97.628837,30.309713],[-97.628093,30.309368],[-97.627286,30.308994],[-97.627264,30.308946],[-97.627407,30.308665],[-97.626067,30.30801],[-97.62557,30.307773],[-97.625288,30.307629],[-97.625038,30.307505],[-97.624743,30.307358],[-97.6227,30.306342],[-97.622312,30.306148],[-97.62229,30.306137],[-97.622265,30.306124],[-97.621902,30.305944],[-97.619515,30.304751],[-97.619303,30.304657],[-97.61909,30.305014],[-97.619018,30.305134],[-97.618931,30.305281],[-97.618744,30.3056],[-97.618525,30.305975],[-97.618022,30.306809],[-97.617953,30.306901],[-97.616945,30.308321],[-97.616773,30.308603],[-97.6156,30.310358],[-97.614966,30.311416],[-97.614782,30.311732],[-97.614065,30.312851],[-97.611951,30.316146],[-97.608687,30.321234],[-97.605387,30.32638],[-97.605327,30.326554],[-97.60531,30.326601],[-97.605102,30.327052],[-97.604758,30.327798],[-97.604582,30.328181],[-97.604138,30.32915],[-97.604112,30.329192],[-97.603468,30.330261],[-97.602823,30.331329],[-97.601175,30.334061],[-97.600896,30.334523],[-97.600735,30.334788],[-97.600893,30.334862],[-97.601695,30.335237],[-97.601785,30.335417],[-97.601847,30.335394],[-97.602271,30.335232],[-97.602312,30.335217],[-97.603002,30.334954],[-97.603059,30.334932],[-97.604083,30.334542],[-97.604475,30.335019],[-97.604662,30.335299],[-97.604705,30.335285],[-97.605132,30.335158],[-97.607184,30.334604],[-97.607366,30.334555],[-97.607565,30.334501],[-97.607716,30.334459],[-97.609262,30.334033],[-97.609921,30.333867],[-97.610588,30.333701],[-97.613938,30.332806],[-97.61738,30.331882],[-97.618442,30.331586],[-97.619634,30.331257],[-97.620219,30.331123],[-97.620966,30.330968],[-97.621513,30.33087],[-97.623104,30.33068],[-97.62317,30.330672],[-97.623282,30.330659],[-97.623464,30.330646],[-97.623643,30.330634],[-97.625624,30.330501],[-97.628778,30.330055],[-97.629301,30.329995],[-97.630019,30.32995],[-97.630303,30.329906],[-97.630872,30.329816],[-97.632059,30.329731],[-97.633133,30.329655],[-97.634855,30.329544],[-97.63569,30.329504],[-97.636586,30.329494],[-97.638046,30.329413],[-97.64037,30.329255],[-97.641123,30.329204],[-97.641148,30.32917],[-97.64135,30.32886],[-97.641625,30.32843],[-97.641914,30.327979]]],[[[-97.621971,30.359663],[-97.620265,30.359548],[-97.620613,30.359012],[-97.62069,30.358892],[-97.620772,30.358774],[-97.62085,30.358653],[-97.620928,30.358534],[-97.621005,30.358414],[-97.621057,30.358334],[-97.621083,30.358294],[-97.621161,30.358174],[-97.621239,30.358055],[-97.621291,30.357975],[-97.621316,30.357935],[-97.621409,30.35779],[-97.621485,30.35767],[-97.621577,30.357526],[-97.621654,30.357405],[-97.621731,30.357285],[-97.621808,30.357165],[-97.621884,30.357045],[-97.621961,30.356924],[-97.622038,30.356804],[-97.622115,30.356684],[-97.622192,30.356563],[-97.622291,30.356407],[-97.622401,30.356236],[-97.62252,30.356049],[-97.622568,30.355973],[-97.622678,30.355802],[-97.622905,30.355445],[-97.622888,30.355437],[-97.62255,30.355278],[-97.622228,30.355125],[-97.622098,30.355064],[-97.621907,30.354973],[-97.621708,30.354879],[-97.621569,30.354813],[-97.621429,30.354748],[-97.62129,30.354682],[-97.621151,30.354616],[-97.621012,30.35455],[-97.620774,30.354438],[-97.620621,30.354365],[-97.620468,30.354293],[-97.620301,30.354214],[-97.620161,30.354148],[-97.619994,30.354069],[-97.619855,30.354003],[-97.619716,30.353937],[-97.619577,30.353872],[-97.619438,30.353806],[-97.619299,30.35374],[-97.619159,30.353674],[-97.619141,30.353665],[-97.619548,30.353045],[-97.619681,30.352838],[-97.62076,30.351182],[-97.621232,30.350457],[-97.621382,30.350244],[-97.622393,30.348705],[-97.622472,30.348585],[-97.62284,30.348025],[-97.623542,30.346951],[-97.623573,30.346873],[-97.627344,30.348646],[-97.629114,30.349474],[-97.629902,30.34986],[-97.62723,30.353961],[-97.628027,30.354333],[-97.628028,30.354332],[-97.629169,30.352597],[-97.629514,30.352069],[-97.63021,30.351002],[-97.630666,30.350303],[-97.630729,30.35036],[-97.630901,30.350465],[-97.63108,30.350532],[-97.633811,30.351247],[-97.638835,30.352668],[-97.638967,30.352719],[-97.639061,30.352775],[-97.638932,30.352833],[-97.638829,30.352897],[-97.637823,30.353812],[-97.636552,30.354959],[-97.63477,30.353478],[-97.633865,30.354302],[-97.633794,30.354367],[-97.633932,30.354481],[-97.635568,30.355847],[-97.635188,30.35619],[-97.631786,30.359198],[-97.630783,30.360154],[-97.630691,30.360103],[-97.628522,30.35949],[-97.625296,30.358579],[-97.625461,30.358321],[-97.625558,30.358169],[-97.627038,30.355846],[-97.627323,30.355398],[-97.627143,30.355679],[-97.625296,30.358578],[-97.624701,30.359508],[-97.62448,30.359856],[-97.62432,30.360106],[-97.623804,30.360914],[-97.623479,30.361422],[-97.625289,30.361949],[-97.6253,30.361953],[-97.627844,30.362694],[-97.627756,30.362722],[-97.623406,30.361455],[-97.62442,30.359869],[-97.624394,30.359853],[-97.622653,30.358836],[-97.622641,30.358851],[-97.621971,30.359663]]]]}}]}